{
"type": "FeatureCollection",
"name": "caries_puntos",
"crs": { "type": "name", "properties": { "name": "urn:ogc:def:crs:OGC:1.3:CRS84" } },
"features": [
{ "type": "Feature", "properties": { "nro": "54", "ubicacion": "San Martín 1622", "distrito": "CENTRO", "zonainmob": 4 }, "geometry": { "type": "Point", "coordinates": [ -60.709503, -31.656714, 0.0 ] } },
{ "type": "Feature", "properties": { "nro": "55", "ubicacion": "San Martín 1708", "distrito": "CENTRO", "zonainmob": 4 }, "geometry": { "type": "Point", "coordinates": [ -60.709205, -31.655759, 0.0 ] } },
{ "type": "Feature", "properties": { "nro": "27", "ubicacion": "San Martín 1838", "distrito": "CENTRO", "zonainmob": 4 }, "geometry": { "type": "Point", "coordinates": [ -60.70878, -31.654345, 0.0 ] } },
{ "type": "Feature", "properties": { "nro": "56", "ubicacion": "San Martín 2060", "distrito": "CENTRO", "zonainmob": 42 }, "geometry": { "type": "Point", "coordinates": [ -60.708062, -31.65187, 0.0 ] } },
{ "type": "Feature", "properties": { "nro": "57", "ubicacion": "San Martín 2447", "distrito": "CENTRO", "zonainmob": 42 }, "geometry": { "type": "Point", "coordinates": [ -60.707008, -31.647374, 0.0 ] } },
{ "type": "Feature", "properties": { "nro": "37", "ubicacion": "San Martín 2766", "distrito": "CENTRO", "zonainmob": 42 }, "geometry": { "type": "Point", "coordinates": [ -60.705554, -31.643824, 0.0 ] } },
{ "type": "Feature", "properties": { "nro": "58", "ubicacion": "San Martin 2783", "distrito": "CENTRO", "zonainmob": 42 }, "geometry": { "type": "Point", "coordinates": [ -60.705825, -31.643628, 0.0 ] } },
{ "type": "Feature", "properties": { "nro": "59", "ubicacion": "San Martín 2941", "distrito": "CENTRO", "zonainmob": 42 }, "geometry": { "type": "Point", "coordinates": [ -60.70525, -31.641802, 0.0 ] } },
{ "type": "Feature", "properties": { "nro": "32", "ubicacion": "Dr. Zavalla 3361", "distrito": "SUROESTE", "zonainmob": 8 }, "geometry": { "type": "Point", "coordinates": [ -60.717113, -31.634263, 0.0 ] } },
{ "type": "Feature", "properties": { "nro": "41", "ubicacion": "25 de Mayo 2064", "distrito": "CENTRO", "zonainmob": 6 }, "geometry": { "type": "Point", "coordinates": [ -60.706301, -31.651959, 0.0 ] } },
{ "type": "Feature", "properties": { "nro": "22", "ubicacion": "Av. Facundo Zuviría 6485", "distrito": "OESTE", "zonainmob": 21 }, "geometry": { "type": "Point", "coordinates": [ -60.703749, -31.606555, 0.0 ] } },
{ "type": "Feature", "properties": { "nro": "21", "ubicacion": "Av. Facundo Zuviría 6103", "distrito": "OESTE", "zonainmob": 21 }, "geometry": { "type": "Point", "coordinates": [ -60.704759, -31.609839, 0.0 ] } },
{ "type": "Feature", "properties": { "nro": "12", "ubicacion": "25 de mayo de 2241", "distrito": "CENTRO", "zonainmob": 6 }, "geometry": { "type": "Point", "coordinates": [ -60.706778, -31.650077, 0.0 ] } },
{ "type": "Feature", "properties": { "nro": "48", "ubicacion": "Pje C. Arevalo 2347", "distrito": "ESTE", "zonainmob": 19 }, "geometry": { "type": "Point", "coordinates": [ -60.695078, -31.616274, 0.0 ] } },
{ "type": "Feature", "properties": { "nro": "47", "ubicacion": "Ignacio Risso 1729", "distrito": "ESTE", "zonainmob": 22 }, "geometry": { "type": "Point", "coordinates": [ -60.683508, -31.603152, 0.0 ] } },
{ "type": "Feature", "properties": { "nro": "19", "ubicacion": "Av. Almte. Brown 7463", "distrito": "ESTE", "zonainmob": 18 }, "geometry": { "type": "Point", "coordinates": [ -60.666082, -31.605287, 0.0 ] } },
{ "type": "Feature", "properties": { "nro": "18", "ubicacion": "Av. Almte. Brown ", "distrito": "ESTE", "zonainmob": 18 }, "geometry": { "type": "Point", "coordinates": [ -60.672467, -31.61535, 0.0 ] } },
{ "type": "Feature", "properties": { "nro": "3", "ubicacion": "3 de febrero de 3491", "distrito": "CENTRO", "zonainmob": 4 }, "geometry": { "type": "Point", "coordinates": [ -60.721656, -31.656337, 0.0 ] } },
{ "type": "Feature", "properties": { "nro": "20", "ubicacion": "E. Muttis 700", "distrito": "CENTRO", "zonainmob": 12 }, "geometry": { "type": "Point", "coordinates": [ -60.678654, -31.629884, 0.0 ] } },
{ "type": "Feature", "properties": { "nro": "25", "ubicacion": "Av. Gdor. Freyre 2551", "distrito": "CENTRO", "zonainmob": 8 }, "geometry": { "type": "Point", "coordinates": [ -60.718238, -31.643379, 0.0 ] } },
{ "type": "Feature", "properties": { "nro": "43", "ubicacion": "Moreno 2361", "distrito": "CENTRO", "zonainmob": 4 }, "geometry": { "type": "Point", "coordinates": [ -60.706063, -31.655284, 0.0 ] } },
{ "type": "Feature", "properties": { "nro": "49", "ubicacion": "Salta 2729", "distrito": "CENTRO", "zonainmob": 6 }, "geometry": { "type": "Point", "coordinates": [ -60.709424, -31.649934, 0.0 ] } },
{ "type": "Feature", "properties": { "nro": "51", "ubicacion": "San Jerónimo 2182", "distrito": "CENTRO", "zonainmob": 6 }, "geometry": { "type": "Point", "coordinates": [ -60.708976, -31.650267, 0.0 ] } },
{ "type": "Feature", "properties": { "nro": "33", "ubicacion": "Güemes 3369", "distrito": "CENTRO", "zonainmob": 5 }, "geometry": { "type": "Point", "coordinates": [ -60.689661, -31.639882, 0.0 ] } },
{ "type": "Feature", "properties": { "nro": "30", "ubicacion": "Moreno 2391", "distrito": "CENTRO", "zonainmob": 4 }, "geometry": { "type": "Point", "coordinates": [ -60.706363, -31.655254, 0.0 ] } },
{ "type": "Feature", "properties": { "nro": "1", "ubicacion": "1 de mayo de 1283", "distrito": "CENTRO", "zonainmob": 4 }, "geometry": { "type": "Point", "coordinates": [ -60.714683, -31.659705, 0.0 ] } },
{ "type": "Feature", "properties": { "nro": "29", "ubicacion": "Cruz Roja Argentina 1641", "distrito": "CENTRO", "zonainmob": 4 }, "geometry": { "type": "Point", "coordinates": [ -60.707045, -31.656895, 0.0 ] } },
{ "type": "Feature", "properties": { "nro": "39", "ubicacion": "Ituzaingo 2048", "distrito": "CENTRO", "zonainmob": 5 }, "geometry": { "type": "Point", "coordinates": [ -60.69758, -31.638704, 0.0 ] } },
{ "type": "Feature", "properties": { "nro": "45", "ubicacion": "Obispo Gelabert 2959", "distrito": "CENTRO", "zonainmob": 6 }, "geometry": { "type": "Point", "coordinates": [ -60.70824, -31.635931, 0.0 ] } },
{ "type": "Feature", "properties": { "nro": "2", "ubicacion": "1 de mayo de 1791", "distrito": "CENTRO", "zonainmob": 4 }, "geometry": { "type": "Point", "coordinates": [ -60.71308, -31.654264, 0.0 ] } },
{ "type": "Feature", "properties": { "nro": "10", "ubicacion": "9 de julio de 2765", "distrito": "CENTRO", "zonainmob": 6 }, "geometry": { "type": "Point", "coordinates": [ -60.708517, -31.643336, 0.0 ] } },
{ "type": "Feature", "properties": { "nro": "8", "ubicacion": "9 de julio de 2038", "distrito": "CENTRO", "zonainmob": 6 }, "geometry": { "type": "Point", "coordinates": [ -60.710592, -31.651705, 0.0 ] } },
{ "type": "Feature", "properties": { "nro": "9", "ubicacion": "9 de julio de 2048", "distrito": "CENTRO", "zonainmob": 6 }, "geometry": { "type": "Point", "coordinates": [ -60.71056, -31.651592, 0.0 ] } },
{ "type": "Feature", "properties": { "nro": "5", "ubicacion": "4 de enero de 2661", "distrito": "CENTRO", "zonainmob": 6 }, "geometry": { "type": "Point", "coordinates": [ -60.71133, -31.643866, 0.0 ] } },
{ "type": "Feature", "properties": { "nro": "6", "ubicacion": "4 de enero de 2674", "distrito": "CENTRO", "zonainmob": 6 }, "geometry": { "type": "Point", "coordinates": [ -60.711068, -31.643869, 0.0 ] } },
{ "type": "Feature", "properties": { "nro": "7", "ubicacion": "4 de enero de 3114", "distrito": "CENTRO", "zonainmob": 6 }, "geometry": { "type": "Point", "coordinates": [ -60.709552, -31.63871, 0.0 ] } },
{ "type": "Feature", "properties": { "nro": "44", "ubicacion": "Obispo Gelabert 2887", "distrito": "CENTRO", "zonainmob": 6 }, "geometry": { "type": "Point", "coordinates": [ -60.707319, -31.636127, 0.0 ] } },
{ "type": "Feature", "properties": { "nro": "40", "ubicacion": "La Rioja 2877", "distrito": "CENTRO", "zonainmob": 6 }, "geometry": { "type": "Point", "coordinates": [ -60.709826, -31.644939, 0.0 ] } },
{ "type": "Feature", "properties": { "nro": "11", "ubicacion": "Suipacha 2792", "distrito": "CENTRO", "zonainmob": 6 }, "geometry": { "type": "Point", "coordinates": [ -60.707001, -31.639422, 0.0 ] } },
{ "type": "Feature", "properties": { "nro": "14", "ubicacion": "Obispo Gelabert 2531", "distrito": "CENTRO", "zonainmob": 6 }, "geometry": { "type": "Point", "coordinates": [ -60.703137, -31.637063, 0.0 ] } },
{ "type": "Feature", "properties": { "nro": "17", "ubicacion": "Mendoza 2430", "distrito": "CENTRO", "zonainmob": 6 }, "geometry": { "type": "Point", "coordinates": [ -60.705154, -31.64931, 0.0 ] } },
{ "type": "Feature", "properties": { "nro": "13", "ubicacion": "25 de mayo de 2993", "distrito": "CENTRO", "zonainmob": 6 }, "geometry": { "type": "Point", "coordinates": [ -60.704402, -31.641457, 0.0 ] } },
{ "type": "Feature", "properties": { "nro": "60", "ubicacion": "Vera Mujica 501", "distrito": "SUROESTE", "zonainmob": 2 }, "geometry": { "type": "Point", "coordinates": [ -60.72602, -31.665874, 0.0 ] } },
{ "type": "Feature", "properties": { "nro": "23", "ubicacion": "Av. Facundo Zuviría 8124", "distrito": "ESTE", "zonainmob": 23 }, "geometry": { "type": "Point", "coordinates": [ -60.698321, -31.59125, 0.0 ] } },
{ "type": "Feature", "properties": { "nro": "46", "ubicacion": "Regimiento 12 de Infantería 25", "distrito": "ESTE", "zonainmob": 18 }, "geometry": { "type": "Point", "coordinates": [ -60.664265, -31.604515, 0.0 ] } },
{ "type": "Feature", "properties": { "nro": "24", "ubicacion": "Av. Gdor. Freyre 1502", "distrito": "CENTRO", "zonainmob": 4 }, "geometry": { "type": "Point", "coordinates": [ -60.721586, -31.656101, 0.0 ] } },
{ "type": "Feature", "properties": { "nro": "42", "ubicacion": "Juan Llerena 2709", "distrito": "ESTE", "zonainmob": 19 }, "geometry": { "type": "Point", "coordinates": [ -60.698423, -31.613488, 0.0 ] } },
{ "type": "Feature", "properties": { "nro": "15", "ubicacion": "Alvear 2823", "distrito": "CENTRO", "zonainmob": 5 }, "geometry": { "type": "Point", "coordinates": [ -60.698782, -31.64407, 0.0 ] } },
{ "type": "Feature", "properties": { "nro": "16", "ubicacion": "Alvear 2851", "distrito": "CENTRO", "zonainmob": 5 }, "geometry": { "type": "Point", "coordinates": [ -60.698757, -31.643884, 0.0 ] } },
{ "type": "Feature", "properties": { "nro": "4", "ubicacion": "4 de enero de 1635", "distrito": "CENTRO", "zonainmob": 4 }, "geometry": { "type": "Point", "coordinates": [ -60.714861, -31.655727, 0.0 ] } },
{ "type": "Feature", "properties": { "nro": "31", "ubicacion": "Av. Facundo Zuviría 3998", "distrito": "ESTE", "zonainmob": 15 }, "geometry": { "type": "Point", "coordinates": [ -60.704671, -31.630507, 0.0 ] } },
{ "type": "Feature", "properties": { "nro": "53", "ubicacion": "San Luis 3301", "distrito": "CENTRO", "zonainmob": 5 }, "geometry": { "type": "Point", "coordinates": [ -60.700456, -31.638391, 0.0 ] } },
{ "type": "Feature", "properties": { "nro": "52", "ubicacion": "San Jerónimo 5831", "distrito": "ESTE", "zonainmob": 19 }, "geometry": { "type": "Point", "coordinates": [ -60.698556, -31.614006, 0.0 ] } },
{ "type": "Feature", "properties": { "nro": "34", "ubicacion": "Güemes 3672", "distrito": "CENTRO", "zonainmob": 13 }, "geometry": { "type": "Point", "coordinates": [ -60.688439, -31.637068, 0.0 ] } },
{ "type": "Feature", "properties": { "nro": "35", "ubicacion": "San Luis 2900", "distrito": "CENTRO", "zonainmob": 5 }, "geometry": { "type": "Point", "coordinates": [ -60.701866, -31.64287, 0.0 ] } },
{ "type": "Feature", "properties": { "nro": "61", "ubicacion": "9 de Julio 2058", "distrito": "CENTRO", "zonainmob": 6 }, "geometry": { "type": "Point", "coordinates": [ -60.710557, -31.651484, 0.0 ] } },
{ "type": "Feature", "properties": { "nro": "62", "ubicacion": "9 de Julio 2781", "distrito": "CENTRO", "zonainmob": 6 }, "geometry": { "type": "Point", "coordinates": [ -60.708342, -31.643126, 0.0 ] } },
{ "type": "Feature", "properties": { "nro": "63", "ubicacion": "25 de Mayo 2985", "distrito": "CENTRO", "zonainmob": 6 }, "geometry": { "type": "Point", "coordinates": [ -60.704422, -31.641558, 0.0 ] } },
{ "type": "Feature", "properties": { "nro": "64", "ubicacion": "Dorrego 3129", "distrito": "CENTRO", "zonainmob": 5 }, "geometry": { "type": "Point", "coordinates": [ -60.688101, -31.642563, 0.0 ] } },
{ "type": "Feature", "properties": { "nro": "65", "ubicacion": "Dorrego 3135", "distrito": "CENTRO", "zonainmob": 5 }, "geometry": { "type": "Point", "coordinates": [ -60.688075, -31.64246, 0.0 ] } },
{ "type": "Feature", "properties": { "nro": "66", "ubicacion": "Dorrego 3187", "distrito": "CENTRO", "zonainmob": 5 }, "geometry": { "type": "Point", "coordinates": [ -60.688001, -31.641934, 0.0 ] } },
{ "type": "Feature", "properties": { "nro": "68", "ubicacion": "Rivadavia 3340", "distrito": "CENTRO", "zonainmob": 5 }, "geometry": { "type": "Point", "coordinates": [ -60.701526, -31.637886, 0.0 ] } },
{ "type": "Feature", "properties": { "nro": "69", "ubicacion": "Av. Gral. Paz 4652", "distrito": "ESTE", "zonainmob": 14 }, "geometry": { "type": "Point", "coordinates": [ -60.690572, -31.627143, 0.0 ] } },
{ "type": "Feature", "properties": { "nro": "70", "ubicacion": "Av. Aristóbulo del Valle 9600", "distrito": "NORESTE", "zonainmob": 33 }, "geometry": { "type": "Point", "coordinates": [ -60.690301, -31.577228, 0.0 ] } },
{ "type": "Feature", "properties": { "nro": "71", "ubicacion": "Juan Larrea 7900", "distrito": "ESTE", "zonainmob": 22 }, "geometry": { "type": "Point", "coordinates": [ -60.682564, -31.597265, 0.0 ] } },
{ "type": "Feature", "properties": { "nro": "72", "ubicacion": "Regimiento 12 de Infantería 1767", "distrito": "ESTE", "zonainmob": 22 }, "geometry": { "type": "Point", "coordinates": [ -60.683233, -31.600269, 0.0 ] } },
{ "type": "Feature", "properties": { "nro": "73", "ubicacion": "Tacuarí 6500", "distrito": "ESTE", "zonainmob": 18 }, "geometry": { "type": "Point", "coordinates": [ -60.676565, -31.611788, 0.0 ] } },
{ "type": "Feature", "properties": { "nro": "75", "ubicacion": "Pje. Rodriguez 4341", "distrito": "ESTE", "zonainmob": 16 }, "geometry": { "type": "Point", "coordinates": [ -60.707623, -31.626634, 0.0 ] } },
{ "type": "Feature", "properties": { "nro": "76", "ubicacion": "Urquiza 2176", "distrito": "CENTRO", "zonainmob": 6 }, "geometry": { "type": "Point", "coordinates": [ -60.713967, -31.649181, 0.0 ] } },
{ "type": "Feature", "properties": { "nro": "77", "ubicacion": "Velez Sarsfield 4598", "distrito": "CENTRO", "zonainmob": 12 }, "geometry": { "type": "Point", "coordinates": [ -60.682736, -31.629339, 0.0 ] } },
{ "type": "Feature", "properties": { "nro": "79", "ubicacion": "Urquiza 2698", "distrito": "CENTRO", "zonainmob": 6 }, "geometry": { "type": "Point", "coordinates": [ -60.712367, -31.643413, 0.0 ] } },
{ "type": "Feature", "properties": { "nro": "80", "ubicacion": "Urquiza 2656", "distrito": "CENTRO", "zonainmob": 6 }, "geometry": { "type": "Point", "coordinates": [ -60.712487, -31.643798, 0.0 ] } },
{ "type": "Feature", "properties": { "nro": "81", "ubicacion": "Urquiza 2631", "distrito": "CENTRO", "zonainmob": 6 }, "geometry": { "type": "Point", "coordinates": [ -60.712701, -31.643918, 0.0 ] } },
{ "type": "Feature", "properties": { "nro": "83", "ubicacion": "9 de Julio 1975", "distrito": "CENTRO", "zonainmob": 4 }, "geometry": { "type": "Point", "coordinates": [ -60.711125, -31.652559, 0.0 ] } },
{ "type": "Feature", "properties": { "nro": "84", "ubicacion": "Juan de Garay 2847", "distrito": "CENTRO", "zonainmob": 4 }, "geometry": { "type": "Point", "coordinates": [ -60.71148, -31.652061, 0.0 ] } },
{ "type": "Feature", "properties": { "nro": "85", "ubicacion": "9 de Julio 2063", "distrito": "CENTRO", "zonainmob": 6 }, "geometry": { "type": "Point", "coordinates": [ -60.710811, -31.651413, 0.0 ] } },
{ "type": "Feature", "properties": { "nro": "86", "ubicacion": "Lisandro de la Torre 3138", "distrito": "CENTRO", "zonainmob": 30 }, "geometry": { "type": "Point", "coordinates": [ -60.714872, -31.650005, 0.0 ] } },
{ "type": "Feature", "properties": { "nro": "87", "ubicacion": "Urquiza 2159", "distrito": "CENTRO", "zonainmob": 30 }, "geometry": { "type": "Point", "coordinates": [ -60.714237, -31.649388, 0.0 ] } },
{ "type": "Feature", "properties": { "nro": "88", "ubicacion": "Urquiza 2122", "distrito": "CENTRO", "zonainmob": 30 }, "geometry": { "type": "Point", "coordinates": [ -60.714282, -31.649992, 0.0 ] } },
{ "type": "Feature", "properties": { "nro": "92", "ubicacion": "Pje. Bustamante 2231", "distrito": "CENTRO", "zonainmob": 6 }, "geometry": { "type": "Point", "coordinates": [ -60.709571, -31.649356, 0.0 ] } },
{ "type": "Feature", "properties": { "nro": "91", "ubicacion": "San Jeronimo 2166", "distrito": "CENTRO", "zonainmob": 6 }, "geometry": { "type": "Point", "coordinates": [ -60.708998, -31.650331, 0.0 ] } },
{ "type": "Feature", "properties": { "nro": "89", "ubicacion": "Belgrano", "distrito": "CENTRO", "zonainmob": 5 }, "geometry": { "type": "Point", "coordinates": [ -60.700731, -31.642727, 0.0 ] } },
{ "type": "Feature", "properties": { "nro": "90", "ubicacion": "Salta 2747", "distrito": "CENTRO", "zonainmob": 6 }, "geometry": { "type": "Point", "coordinates": [ -60.709571, -31.64985, 0.0 ] } },
{ "type": "Feature", "properties": { "nro": "93", "ubicacion": "Ituzaingó 2199", "distrito": "CENTRO", "zonainmob": 5 }, "geometry": { "type": "Point", "coordinates": [ -60.699135, -31.638623, 0.0 ] } },
{ "type": "Feature", "properties": { "nro": "94", "ubicacion": "Ituzaingo 1628", "distrito": "CENTRO", "zonainmob": 5 }, "geometry": { "type": "Point", "coordinates": [ -60.693107, -31.639678, 0.0 ] } },
{ "type": "Feature", "properties": { "nro": "95", "ubicacion": "San Jerónimo 1933", "distrito": "CENTRO", "zonainmob": 4 }, "geometry": { "type": "Point", "coordinates": [ -60.709972, -31.653104, 0.0 ] } },
{ "type": "Feature", "properties": { "nro": "96", "ubicacion": "Av. Gobernador Freyre 1699", "distrito": "CENTRO", "zonainmob": 7 }, "geometry": { "type": "Point", "coordinates": [ -60.721194, -31.654073, 0.0 ] } },
{ "type": "Feature", "properties": { "nro": "97", "ubicacion": "Av. Gobernador Freyre 2408", "distrito": "CENTRO", "zonainmob": 7 }, "geometry": { "type": "Point", "coordinates": [ -60.718042, -31.64499, 0.0 ] } },
{ "type": "Feature", "properties": { "nro": "98", "ubicacion": "Mariano Comas 3684", "distrito": "CENTRO", "zonainmob": 13 }, "geometry": { "type": "Point", "coordinates": [ -60.713715, -31.630641, 0.0 ] } },
{ "type": "Feature", "properties": { "nro": "99", "ubicacion": "Pje. C. Arévalo 2485", "distrito": "ESTE", "zonainmob": 19 }, "geometry": { "type": "Point", "coordinates": [ -60.697641, -31.616981, 0.0 ] } },
{ "type": "Feature", "properties": { "nro": "100", "ubicacion": "República de Siria 4300", "distrito": "ESTE", "zonainmob": 15 }, "geometry": { "type": "Point", "coordinates": [ -60.697281, -31.628642, 0.0 ] } },
{ "type": "Feature", "properties": { "nro": "101", "ubicacion": "Belgrano 4399", "distrito": "ESTE", "zonainmob": 15 }, "geometry": { "type": "Point", "coordinates": [ -60.696401, -31.628381, 0.0 ] } },
{ "type": "Feature", "properties": { "nro": "102", "ubicacion": "Urquiza 3415", "distrito": "CENTRO", "zonainmob": 6 }, "geometry": { "type": "Point", "coordinates": [ -60.710218, -31.635104, 0.0 ] } },
{ "type": "Feature", "properties": { "nro": "103", "ubicacion": "San Lorenzo 2500", "distrito": "CENTRO", "zonainmob": 6 }, "geometry": { "type": "Point", "coordinates": [ -60.716644, -31.644225, 0.0 ] } },
{ "type": "Feature", "properties": { "nro": "104", "ubicacion": "Tucumán 3296", "distrito": "CENTRO", "zonainmob": 6 }, "geometry": { "type": "Point", "coordinates": [ -60.715391, -31.644523, 0.0 ] } },
{ "type": "Feature", "properties": { "nro": "105", "ubicacion": "Av. Gral Paz 7162", "distrito": "ESTE", "zonainmob": 18 }, "geometry": { "type": "Point", "coordinates": [ -60.67575, -31.606025, 0.0 ] } },
{ "type": "Feature", "properties": { "nro": "106", "ubicacion": "9 de Julio", "distrito": "CENTRO", "zonainmob": 6 }, "geometry": { "type": "Point", "coordinates": [ -60.71005, -31.648902, 0.0 ] } },
{ "type": "Feature", "properties": { "nro": "107", "ubicacion": "Bolivia 3810", "distrito": "OESTE", "zonainmob": 17 }, "geometry": { "type": "Point", "coordinates": [ -60.716573, -31.623119, 0.0 ] } },
{ "type": "Feature", "properties": { "nro": "108", "ubicacion": "Bv. Pellegrini 2857", "distrito": "CENTRO", "zonainmob": 10 }, "geometry": { "type": "Point", "coordinates": [ -60.706566, -31.635038, 0.0 ] } },
{ "type": "Feature", "properties": { "nro": "109", "ubicacion": "Hipólito Irigoyen 2760", "distrito": "CENTRO", "zonainmob": 6 }, "geometry": { "type": "Point", "coordinates": [ -60.707468, -31.641774, 0.0 ] } },
{ "type": "Feature", "properties": { "nro": "110", "ubicacion": "Hipólito Irigoyen 2688", "distrito": "CENTRO", "zonainmob": 6 }, "geometry": { "type": "Point", "coordinates": [ -60.706387, -31.641968, 0.0 ] } },
{ "type": "Feature", "properties": { "nro": "111", "ubicacion": "Pedro Diaz Colodrero 1306", "distrito": "CENTRO", "zonainmob": 14 }, "geometry": { "type": "Point", "coordinates": [ -60.686303, -31.628636, 0.0 ] } },
{ "type": "Feature", "properties": { "nro": "112", "ubicacion": "Azcuénaga 5300", "distrito": "NOROESTE", "zonainmob": 31 }, "geometry": { "type": "Point", "coordinates": [ -60.725588, -31.587628, 0.0 ] } },
{ "type": "Feature", "properties": { "nro": "113", "ubicacion": "Belgrano 2767", "distrito": "CENTRO", "zonainmob": 5 }, "geometry": { "type": "Point", "coordinates": [ -60.701248, -31.644596, 0.0 ] } },
{ "type": "Feature", "properties": { "nro": "115", "ubicacion": "San Jerónimo 5548", "distrito": "OESTE", "zonainmob": 19 }, "geometry": { "type": "Point", "coordinates": [ -60.699045, -31.616534, 0.0 ] } },
{ "type": "Feature", "properties": { "nro": "116", "ubicacion": "Gdor. Vera 3379", "distrito": "CENTRO", "zonainmob": 6 }, "geometry": { "type": "Point", "coordinates": [ -60.715744, -31.641592, 0.0 ] } },
{ "type": "Feature", "properties": { "nro": "117", "ubicacion": "Italia 7763", "distrito": "ESTE", "zonainmob": 18 }, "geometry": { "type": "Point", "coordinates": [ -60.66528, -31.60253, 0.0 ] } },
{ "type": "Feature", "properties": { "nro": "118", "ubicacion": "Padre Genesio 43", "distrito": "ESTE", "zonainmob": 43 }, "geometry": { "type": "Point", "coordinates": [ -60.665285, -31.606138, 0.0 ] } },
{ "type": "Feature", "properties": { "nro": "119", "ubicacion": "Padre Genesio", "distrito": "ESTE", "zonainmob": 43 }, "geometry": { "type": "Point", "coordinates": [ -60.664783, -31.605946, 0.0 ] } },
{ "type": "Feature", "properties": { "nro": "120", "ubicacion": "Av. Gral Paz", "distrito": "ESTE", "zonainmob": 19 }, "geometry": { "type": "Point", "coordinates": [ -60.678375, -31.610031, 0.0 ] } },
{ "type": "Feature", "properties": { "nro": "121", "ubicacion": "1 de Mayo 2953", "distrito": "CENTRO", "zonainmob": 6 }, "geometry": { "type": "Point", "coordinates": [ -60.709676, -31.640737, 0.0 ] } },
{ "type": "Feature", "properties": { "nro": "122", "ubicacion": "Av. Gral. Paz 7689", "distrito": "ESTE", "zonainmob": 22 }, "geometry": { "type": "Point", "coordinates": [ -60.674579, -31.601498, 0.0 ] } },
{ "type": "Feature", "properties": { "nro": "123", "ubicacion": "Saavedra 3258", "distrito": "CENTRO", "zonainmob": 6 }, "geometry": { "type": "Point", "coordinates": [ -60.713044, -31.636326, 0.0 ] } },
{ "type": "Feature", "properties": { "nro": "124", "ubicacion": "Espora 200", "distrito": "ESTE", "zonainmob": 18 }, "geometry": { "type": "Point", "coordinates": [ -60.668745, -31.608991, 0.0 ] } },
{ "type": "Feature", "properties": { "nro": "125", "ubicacion": "Espora 326", "distrito": "ESTE", "zonainmob": 18 }, "geometry": { "type": "Point", "coordinates": [ -60.669291, -31.608644, 0.0 ] } },
{ "type": "Feature", "properties": { "nro": "126", "ubicacion": "Ángel Cassanello 775", "distrito": "ESTE", "zonainmob": 18 }, "geometry": { "type": "Point", "coordinates": [ -60.675683, -31.613493, 0.0 ] } },
{ "type": "Feature", "properties": { "nro": "127", "ubicacion": "4 de enero de 1895", "distrito": "CENTRO", "zonainmob": 4 }, "geometry": { "type": "Point", "coordinates": [ -60.713931, -31.652848, 0.0 ] } },
{ "type": "Feature", "properties": { "nro": "128", "ubicacion": "Av. Gral. Paz 5764", "distrito": "ESTE", "zonainmob": 14 }, "geometry": { "type": "Point", "coordinates": [ -60.683862, -31.617792, 0.0 ] } },
{ "type": "Feature", "properties": { "nro": "129", "ubicacion": "Marcial Candioti 4087", "distrito": "CENTRO", "zonainmob": 13 }, "geometry": { "type": "Point", "coordinates": [ -60.694008, -31.63187, 0.0 ] } },
{ "type": "Feature", "properties": { "nro": "130", "ubicacion": "La Rioja y 9 de Julio", "distrito": "CENTRO", "zonainmob": 6 }, "geometry": { "type": "Point", "coordinates": [ -60.708656, -31.645017, 0.0 ] } },
{ "type": "Feature", "properties": { "nro": "131", "ubicacion": "Av. Facundo Zuviria 6736", "distrito": "ESTE", "zonainmob": 19 }, "geometry": { "type": "Point", "coordinates": [ -60.70256, -31.604385, 0.0 ] } },
{ "type": "Feature", "properties": { "nro": "132", "ubicacion": "Padre Genesio 3100", "distrito": "ESTE", "zonainmob": 23 }, "geometry": { "type": "Point", "coordinates": [ -60.69972, -31.598379, 0.0 ] } },
{ "type": "Feature", "properties": { "nro": "133", "ubicacion": "Urquiza 1751", "distrito": "CENTRO", "zonainmob": 4 }, "geometry": { "type": "Point", "coordinates": [ -60.715771, -31.654254, 0.0 ] } },
{ "type": "Feature", "properties": { "nro": "134", "ubicacion": "Las Heras 4550", "distrito": "ESTE", "zonainmob": 15 }, "geometry": { "type": "Point", "coordinates": [ -60.694663, -31.627192, 0.0 ] } },
{ "type": "Feature", "properties": { "nro": "135", "ubicacion": "sin direccion", "distrito": "CENTRO", "zonainmob": 13 }, "geometry": { "type": "Point", "coordinates": [ -60.687834, -31.634818, 0.0 ] } },
{ "type": "Feature", "properties": { "nro": "136", "ubicacion": "Italia 7625", "distrito": "ESTE", "zonainmob": 18 }, "geometry": { "type": "Point", "coordinates": [ -60.665582, -31.603739, 0.0 ] } },
{ "type": "Feature", "properties": { "nro": "137", "ubicacion": "Guemes 4859", "distrito": "ESTE", "zonainmob": 14 }, "geometry": { "type": "Point", "coordinates": [ -60.685592, -31.626279, 0.0 ] } },
{ "type": "Feature", "properties": { "nro": "138", "ubicacion": "Alvear 6434", "distrito": "ESTE", "zonainmob": 19 }, "geometry": { "type": "Point", "coordinates": [ -60.688576, -31.610272, 0.0 ] } },
{ "type": "Feature", "properties": { "nro": "139", "ubicacion": null, "distrito": "ESTE", "zonainmob": 19 }, "geometry": { "type": "Point", "coordinates": [ -60.689156, -31.607438, 0.0 ] } },
{ "type": "Feature", "properties": { "nro": "140", "ubicacion": "Pje. M Boedo 1871", "distrito": "ESTE", "zonainmob": 19 }, "geometry": { "type": "Point", "coordinates": [ -60.686394, -31.607546, 0.0 ] } },
{ "type": "Feature", "properties": { "nro": "141", "ubicacion": "Sarmiento 6700", "distrito": "ESTE", "zonainmob": 19 }, "geometry": { "type": "Point", "coordinates": [ -60.684552, -31.608137, 0.0 ] } },
{ "type": "Feature", "properties": { "nro": "142", "ubicacion": "Sarmiento 6600", "distrito": "ESTE", "zonainmob": 19 }, "geometry": { "type": "Point", "coordinates": [ -60.684755, -31.608831, 0.0 ] } },
{ "type": "Feature", "properties": { "nro": "143", "ubicacion": "Sarmiento 6560", "distrito": "ESTE", "zonainmob": 19 }, "geometry": { "type": "Point", "coordinates": [ -60.685125, -31.61009, 0.0 ] } },
{ "type": "Feature", "properties": { "nro": "144", "ubicacion": "Ángel Cassanello 1699", "distrito": "ESTE", "zonainmob": 19 }, "geometry": { "type": "Point", "coordinates": [ -60.685436, -31.611404, 0.0 ] } },
{ "type": "Feature", "properties": { "nro": "145", "ubicacion": "Sarmiento 5729", "distrito": "ESTE", "zonainmob": 19 }, "geometry": { "type": "Point", "coordinates": [ -60.687496, -31.617302, 0.0 ] } },
{ "type": "Feature", "properties": { "nro": "146", "ubicacion": "Necochea 5670", "distrito": "ESTE", "zonainmob": 19 }, "geometry": { "type": "Point", "coordinates": [ -60.688512, -31.617753, 0.0 ] } },
{ "type": "Feature", "properties": { "nro": "147", "ubicacion": null, "distrito": "ESTE", "zonainmob": 19 }, "geometry": { "type": "Point", "coordinates": [ -60.68795, -31.614972, 0.0 ] } },
{ "type": "Feature", "properties": { "nro": "148", "ubicacion": "Ricardo Aldao 1790", "distrito": "ESTE", "zonainmob": 19 }, "geometry": { "type": "Point", "coordinates": [ -60.686636, -31.611894, 0.0 ] } },
{ "type": "Feature", "properties": { "nro": "149", "ubicacion": null, "distrito": "ESTE", "zonainmob": 19 }, "geometry": { "type": "Point", "coordinates": [ -60.686897, -31.611407, 0.0 ] } },
{ "type": "Feature", "properties": { "nro": "150", "ubicacion": "Necochea 6636", "distrito": "ESTE", "zonainmob": 19 }, "geometry": { "type": "Point", "coordinates": [ -60.685965, -31.608956, 0.0 ] } },
{ "type": "Feature", "properties": { "nro": "151", "ubicacion": "Marcial Candioti 6401", "distrito": "ESTE", "zonainmob": 19 }, "geometry": { "type": "Point", "coordinates": [ -60.687807, -31.610652, 0.0 ] } },
{ "type": "Feature", "properties": { "nro": "152", "ubicacion": null, "distrito": "ESTE", "zonainmob": 19 }, "geometry": { "type": "Point", "coordinates": [ -60.688532, -31.613161, 0.0 ] } },
{ "type": "Feature", "properties": { "nro": "153", "ubicacion": null, "distrito": "ESTE", "zonainmob": 19 }, "geometry": { "type": "Point", "coordinates": [ -60.689765, -31.618189, 0.0 ] } },
{ "type": "Feature", "properties": { "nro": "154", "ubicacion": "J. M. Zuviria 2292", "distrito": "ESTE", "zonainmob": 19 }, "geometry": { "type": "Point", "coordinates": [ -60.694208, -31.617964, 0.0 ] } },
{ "type": "Feature", "properties": { "nro": "155", "ubicacion": "J. M. Zuviria 1632", "distrito": "ESTE", "zonainmob": 19 }, "geometry": { "type": "Point", "coordinates": [ -60.687296, -31.619494, 0.0 ] } },
{ "type": "Feature", "properties": { "nro": "156", "ubicacion": "Santiago Derqui 1843", "distrito": "ESTE", "zonainmob": 19 }, "geometry": { "type": "Point", "coordinates": [ -60.689291, -31.618308, 0.0 ] } },
{ "type": "Feature", "properties": { "nro": "157", "ubicacion": "Santiago Derqui 2422", "distrito": "ESTE", "zonainmob": 19 }, "geometry": { "type": "Point", "coordinates": [ -60.695642, -31.616702, 0.0 ] } },
{ "type": "Feature", "properties": { "nro": "158", "ubicacion": null, "distrito": "ESTE", "zonainmob": 19 }, "geometry": { "type": "Point", "coordinates": [ -60.695274, -31.615732, 0.0 ] } },
{ "type": "Feature", "properties": { "nro": "159", "ubicacion": "Av. Aristóbulo del Valle 6644", "distrito": "ESTE", "zonainmob": 19 }, "geometry": { "type": "Point", "coordinates": [ -60.692791, -31.607333, 0.0 ] } },
{ "type": "Feature", "properties": { "nro": "160", "ubicacion": "Av.Aristobulo del Valle 6780", "distrito": "ESTE", "zonainmob": 19 }, "geometry": { "type": "Point", "coordinates": [ -60.692476, -31.606215, 0.0 ] } },
{ "type": "Feature", "properties": { "nro": "161", "ubicacion": "1 de Mayo 3118", "distrito": "CENTRO", "zonainmob": 6 }, "geometry": { "type": "Point", "coordinates": [ -60.708264, -31.638989, 0.0 ] } },
{ "type": "Feature", "properties": { "nro": "162", "ubicacion": "Santiago del Estero 3115", "distrito": "CENTRO", "zonainmob": 6 }, "geometry": { "type": "Point", "coordinates": [ -60.710754, -31.636469, 0.0 ] } },
{ "type": "Feature", "properties": { "nro": "163", "ubicacion": "1 de Mayo 3198", "distrito": "CENTRO", "zonainmob": 30 }, "geometry": { "type": "Point", "coordinates": [ -60.708005, -31.638188, 0.0 ] } },
{ "type": "Feature", "properties": { "nro": "165", "ubicacion": "Juan de Garay 2960", "distrito": "CENTRO", "zonainmob": 6 }, "geometry": { "type": "Point", "coordinates": [ -60.713043, -31.651618, 0.0 ] } },
{ "type": "Feature", "properties": { "nro": "166", "ubicacion": "Marcial Candioti 2948", "distrito": "CENTRO", "zonainmob": 5 }, "geometry": { "type": "Point", "coordinates": [ -60.696512, -31.642766, 0.0 ] } },
{ "type": "Feature", "properties": { "nro": "167", "ubicacion": "Pasaje Irala 4332", "distrito": "OESTE", "zonainmob": 9 }, "geometry": { "type": "Point", "coordinates": [ -60.721782, -31.632095, 0.0 ] } },
{ "type": "Feature", "properties": { "nro": "168", "ubicacion": "Pasaje de Leiva 5541", "distrito": "ESTE", "zonainmob": 19 }, "geometry": { "type": "Point", "coordinates": [ -60.695309, -31.618499, 0.0 ] } },
{ "type": "Feature", "properties": { "nro": "169", "ubicacion": "Delfin Huergo 1825", "distrito": "ESTE", "zonainmob": 19 }, "geometry": { "type": "Point", "coordinates": [ -60.688634, -31.616515, 0.0 ] } },
{ "type": "Feature", "properties": { "nro": "170", "ubicacion": "República de Siria 5640", "distrito": "ESTE", "zonainmob": 19 }, "geometry": { "type": "Point", "coordinates": [ -60.693828, -31.616578, 0.0 ] } },
{ "type": "Feature", "properties": { "nro": "171", "ubicacion": "Avellaneda 6001", "distrito": "ESTE", "zonainmob": 14 }, "geometry": { "type": "Point", "coordinates": [ -60.681435, -31.615872, 0.0 ] } },
{ "type": "Feature", "properties": { "nro": "172", "ubicacion": "Lavaisse 1418", "distrito": "ESTE", "zonainmob": 19 }, "geometry": { "type": "Point", "coordinates": [ -60.683688, -31.615425, 0.0 ] } },
{ "type": "Feature", "properties": { "nro": "173", "ubicacion": "Hipolito Irigoyen 2464", "distrito": "CENTRO", "zonainmob": 6 }, "geometry": { "type": "Point", "coordinates": [ -60.703912, -31.642472, 0.0 ] } },
{ "type": "Feature", "properties": { "nro": "174", "ubicacion": "25 de Mayo 2901", "distrito": "CENTRO", "zonainmob": 6 }, "geometry": { "type": "Point", "coordinates": [ -60.704658, -31.642249, 0.0 ] } },
{ "type": "Feature", "properties": { "nro": "175", "ubicacion": "Pje. Guanella 3074", "distrito": "ESTE", "zonainmob": 23 }, "geometry": { "type": "Point", "coordinates": [ -60.699204, -31.599029, 0.0 ] } },
{ "type": "Feature", "properties": { "nro": "176", "ubicacion": "Lavaisse 1747", "distrito": "ESTE", "zonainmob": 19 }, "geometry": { "type": "Point", "coordinates": [ -60.687295, -31.614838, 0.0 ] } },
{ "type": "Feature", "properties": { "nro": "177", "ubicacion": "Lavaisse 1800", "distrito": "ESTE", "zonainmob": 19 }, "geometry": { "type": "Point", "coordinates": [ -60.688368, -31.614631, 0.0 ] } },
{ "type": "Feature", "properties": { "nro": "178", "ubicacion": "Lavaisse 2225", "distrito": "ESTE", "zonainmob": 19 }, "geometry": { "type": "Point", "coordinates": [ -60.692321, -31.613755, 0.0 ] } },
{ "type": "Feature", "properties": { "nro": "179", "ubicacion": "Pedro de Vega", "distrito": "ESTE", "zonainmob": 19 }, "geometry": { "type": "Point", "coordinates": [ -60.682367, -31.613775, 0.0 ] } },
{ "type": "Feature", "properties": { "nro": "180", "ubicacion": "Pedro de Vega", "distrito": "ESTE", "zonainmob": 19 }, "geometry": { "type": "Point", "coordinates": [ -60.683716, -31.613473, 0.0 ] } },
{ "type": "Feature", "properties": { "nro": "181", "ubicacion": "Pedro de Vega", "distrito": "ESTE", "zonainmob": 19 }, "geometry": { "type": "Point", "coordinates": [ -60.688018, -31.612751, 0.0 ] } },
{ "type": "Feature", "properties": { "nro": "182", "ubicacion": "Pedro de Vega 2000", "distrito": "ESTE", "zonainmob": 19 }, "geometry": { "type": "Point", "coordinates": [ -60.690056, -31.612326, 0.0 ] } },
{ "type": "Feature", "properties": { "nro": "183", "ubicacion": "Ricardo Aldao", "distrito": "ESTE", "zonainmob": 19 }, "geometry": { "type": "Point", "coordinates": [ -60.69146, -31.611042, 0.0 ] } },
{ "type": "Feature", "properties": { "nro": "184", "ubicacion": "Ricardo Aldao", "distrito": "ESTE", "zonainmob": 19 }, "geometry": { "type": "Point", "coordinates": [ -60.689329, -31.61152, 0.0 ] } },
{ "type": "Feature", "properties": { "nro": "185", "ubicacion": "Ricardo Aldao", "distrito": "ESTE", "zonainmob": 19 }, "geometry": { "type": "Point", "coordinates": [ -60.691074, -31.610188, 0.0 ] } },
{ "type": "Feature", "properties": { "nro": "186", "ubicacion": "J.P. Lopez", "distrito": "ESTE", "zonainmob": 19 }, "geometry": { "type": "Point", "coordinates": [ -60.690995, -31.608998, 0.0 ] } },
{ "type": "Feature", "properties": { "nro": "187", "ubicacion": "J.P.López 2155", "distrito": "ESTE", "zonainmob": 19 }, "geometry": { "type": "Point", "coordinates": [ -60.689924, -31.609457, 0.0 ] } },
{ "type": "Feature", "properties": { "nro": "188", "ubicacion": "J.P.Lopez 1836", "distrito": "ESTE", "zonainmob": 19 }, "geometry": { "type": "Point", "coordinates": [ -60.686742, -31.609948, 0.0 ] } },
{ "type": "Feature", "properties": { "nro": "189", "ubicacion": "J.P.López 1646", "distrito": "ESTE", "zonainmob": 19 }, "geometry": { "type": "Point", "coordinates": [ -60.684606, -31.610391, 0.0 ] } },
{ "type": "Feature", "properties": { "nro": "190", "ubicacion": "Hernandarias 2025", "distrito": "ESTE", "zonainmob": 19 }, "geometry": { "type": "Point", "coordinates": [ -60.688569, -31.608761, 0.0 ] } },
{ "type": "Feature", "properties": { "nro": "191", "ubicacion": "Entre Ríos", "distrito": "CENTRO", "zonainmob": 4 }, "geometry": { "type": "Point", "coordinates": [ -60.714261, -31.659553, 0.0 ] } },
{ "type": "Feature", "properties": { "nro": "192", "ubicacion": "Dr. Zavalla 1401", "distrito": "SUROESTE", "zonainmob": 9 }, "geometry": { "type": "Point", "coordinates": [ -60.723498, -31.656788, 0.0 ] } },
{ "type": "Feature", "properties": { "nro": "193", "ubicacion": "Amenabar 2972", "distrito": "CENTRO", "zonainmob": 4 }, "geometry": { "type": "Point", "coordinates": [ -60.715126, -31.658272, 0.0 ] } },
{ "type": "Feature", "properties": { "nro": "194", "ubicacion": "Amenabar 2836", "distrito": "CENTRO", "zonainmob": 4 }, "geometry": { "type": "Point", "coordinates": [ -60.713402, -31.65856, 0.0 ] } },
{ "type": "Feature", "properties": { "nro": "195", "ubicacion": "Amenabar 2786", "distrito": "CENTRO", "zonainmob": 4 }, "geometry": { "type": "Point", "coordinates": [ -60.712792, -31.658636, 0.0 ] } },
{ "type": "Feature", "properties": { "nro": "196", "ubicacion": "J.P.López 1092", "distrito": "ESTE", "zonainmob": 19 }, "geometry": { "type": "Point", "coordinates": [ -60.678933, -31.611603, 0.0 ] } },
{ "type": "Feature", "properties": { "nro": "197", "ubicacion": "Monseñor Zazpe", "distrito": "SUROESTE", "zonainmob": 8 }, "geometry": { "type": "Point", "coordinates": [ -60.723746, -31.653347, 0.0 ] } },
{ "type": "Feature", "properties": { "nro": "198", "ubicacion": "3 de febrero", "distrito": "CENTRO", "zonainmob": 4 }, "geometry": { "type": "Point", "coordinates": [ -60.718229, -31.656639, 0.0 ] } },
{ "type": "Feature", "properties": { "nro": "199", "ubicacion": "Dr. Zavalla 1501", "distrito": "SUROESTE", "zonainmob": 9 }, "geometry": { "type": "Point", "coordinates": [ -60.723218, -31.655839, 0.0 ] } },
{ "type": "Feature", "properties": { "nro": "200", "ubicacion": "Gral. López 3580", "distrito": "CENTRO", "zonainmob": 8 }, "geometry": { "type": "Point", "coordinates": [ -60.722566, -31.654719, 0.0 ] } },
{ "type": "Feature", "properties": { "nro": "201", "ubicacion": "Dr. Zavalla 1701", "distrito": "SUROESTE", "zonainmob": 8 }, "geometry": { "type": "Point", "coordinates": [ -60.722569, -31.653615, 0.0 ] } },
{ "type": "Feature", "properties": { "nro": "202", "ubicacion": "Gral. López 3352", "distrito": "CENTRO", "zonainmob": 4 }, "geometry": { "type": "Point", "coordinates": [ -60.719438, -31.655276, 0.0 ] } },
{ "type": "Feature", "properties": { "nro": "203", "ubicacion": "Gral. López 2858", "distrito": "CENTRO", "zonainmob": 4 }, "geometry": { "type": "Point", "coordinates": [ -60.713056, -31.656349, 0.0 ] } },
{ "type": "Feature", "properties": { "nro": "204", "ubicacion": "9 de julio de 1124", "distrito": "CENTRO", "zonainmob": 4 }, "geometry": { "type": "Point", "coordinates": [ -60.713809, -31.661816, 0.0 ] } },
{ "type": "Feature", "properties": { "nro": "205", "ubicacion": "9 de julio de 1154", "distrito": "CENTRO", "zonainmob": 4 }, "geometry": { "type": "Point", "coordinates": [ -60.71368, -31.66146, 0.0 ] } },
{ "type": "Feature", "properties": { "nro": "206", "ubicacion": "9 de julio de 1163 ", "distrito": "CENTRO", "zonainmob": 4 }, "geometry": { "type": "Point", "coordinates": [ -60.713817, -31.661351, 0.0 ] } },
{ "type": "Feature", "properties": { "nro": "207", "ubicacion": "9 de julio de 1240", "distrito": "CENTRO", "zonainmob": 4 }, "geometry": { "type": "Point", "coordinates": [ -60.713387, -31.660491, 0.0 ] } },
{ "type": "Feature", "properties": { "nro": "210", "ubicacion": "Jujuy 3407", "distrito": "CENTRO", "zonainmob": 4 }, "geometry": { "type": "Point", "coordinates": [ -60.721895, -31.660663, 0.0 ] } },
{ "type": "Feature", "properties": { "nro": "208", "ubicacion": "Entre Ríos 2873", "distrito": "CENTRO", "zonainmob": 4 }, "geometry": { "type": "Point", "coordinates": [ -60.714183, -31.659723, 0.0 ] } },
{ "type": "Feature", "properties": { "nro": "209", "ubicacion": "Jujuy 3033", "distrito": "CENTRO", "zonainmob": 4 }, "geometry": { "type": "Point", "coordinates": [ -60.717018, -31.661554, 0.0 ] } },
{ "type": "Feature", "properties": { "nro": "211", "ubicacion": "Jujuy 3445", "distrito": "CENTRO", "zonainmob": 4 }, "geometry": { "type": "Point", "coordinates": [ -60.722288, -31.66053, 0.0 ] } },
{ "type": "Feature", "properties": { "nro": "212", "ubicacion": "San Jerónimo 1119", "distrito": "CENTRO", "zonainmob": 4 }, "geometry": { "type": "Point", "coordinates": [ -60.712666, -31.662083, 0.0 ] } },
{ "type": "Feature", "properties": { "nro": "213", "ubicacion": "Pasaje Cervantes 3093", "distrito": "CENTRO", "zonainmob": 4 }, "geometry": { "type": "Point", "coordinates": [ -60.717216, -31.659671, 0.0 ] } },
{ "type": "Feature", "properties": { "nro": "214", "ubicacion": "Francia", "distrito": "CENTRO", "zonainmob": 4 }, "geometry": { "type": "Point", "coordinates": [ -60.718885, -31.660421, 0.0 ] } },
{ "type": "Feature", "properties": { "nro": "215", "ubicacion": "Francia 1465", "distrito": "CENTRO", "zonainmob": 4 }, "geometry": { "type": "Point", "coordinates": [ -60.718077, -31.657175, 0.0 ] } },
{ "type": "Feature", "properties": { "nro": "216", "ubicacion": "Saavedra 1129 / 1133", "distrito": "CENTRO", "zonainmob": 4 }, "geometry": { "type": "Point", "coordinates": [ -60.720351, -31.660335, 0.0 ] } },
{ "type": "Feature", "properties": { "nro": "217", "ubicacion": "Av. Juan José Paso 3280", "distrito": "CENTRO", "zonainmob": 3 }, "geometry": { "type": "Point", "coordinates": [ -60.720411, -31.661865, 0.0 ] } },
{ "type": "Feature", "properties": { "nro": "218", "ubicacion": "Av. Gdor Freyre 1569", "distrito": "CENTRO", "zonainmob": 4 }, "geometry": { "type": "Point", "coordinates": [ -60.721693, -31.655387, 0.0 ] } },
{ "type": "Feature", "properties": { "nro": "219", "ubicacion": "Av. Juan José Paso 3492", "distrito": "CENTRO", "zonainmob": 4 }, "geometry": { "type": "Point", "coordinates": [ -60.723062, -31.661133, 0.0 ] } },
{ "type": "Feature", "properties": { "nro": "220", "ubicacion": "Ignacio Risso 1380", "distrito": "ESTE", "zonainmob": 4 }, "geometry": { "type": "Point", "coordinates": [ -60.679638, -31.603732, 0.0 ] } },
{ "type": "Feature", "properties": { "nro": "221", "ubicacion": "Pje. Bustamante 2257", "distrito": "CENTRO", "zonainmob": 6 }, "geometry": { "type": "Point", "coordinates": [ -60.709438, -31.648991, 0.0 ] } },
{ "type": "Feature", "properties": { "nro": "222", "ubicacion": "San Lorenzo 2294", "distrito": "CENTRO", "zonainmob": 6 }, "geometry": { "type": "Point", "coordinates": [ -60.717348, -31.646651, 0.0 ] } },
{ "type": "Feature", "properties": { "nro": "224", "ubicacion": "Luciano Molinas 1229", "distrito": "CENTRO", "zonainmob": 13 }, "geometry": { "type": "Point", "coordinates": [ -60.687304, -31.635095, 0.0 ] } },
{ "type": "Feature", "properties": { "nro": "225", "ubicacion": "Lavalle 3886", "distrito": "CENTRO", "zonainmob": 13 }, "geometry": { "type": "Point", "coordinates": [ -60.688994, -31.634824, 0.0 ] } },
{ "type": "Feature", "properties": { "nro": "226", "ubicacion": "Pedro Diaz Colodrero 1346", "distrito": "CENTRO", "zonainmob": 14 }, "geometry": { "type": "Point", "coordinates": [ -60.686474, -31.628428, 0.0 ] } },
{ "type": "Feature", "properties": { "nro": "227", "ubicacion": "Alfonso Duran 4193", "distrito": "SUROESTE", "zonainmob": 8 }, "geometry": { "type": "Point", "coordinates": [ -60.722392, -31.644001, 0.0 ] } },
{ "type": "Feature", "properties": { "nro": "228", "ubicacion": "Uruguay 2728", "distrito": "CENTRO", "zonainmob": 4 }, "geometry": { "type": "Point", "coordinates": [ -60.712591, -31.660942, 0.0 ] } },
{ "type": "Feature", "properties": { "nro": "229", "ubicacion": "A. Beruti 6501", "distrito": "NOROESTE", "zonainmob": 32 }, "geometry": { "type": "Point", "coordinates": [ -60.741645, -31.58242, 0.0 ] } },
{ "type": "Feature", "properties": { "nro": "230", "ubicacion": "Dr. Zavalla 5437", "distrito": "OESTE", "zonainmob": 21 }, "geometry": { "type": "Point", "coordinates": [ -60.711318, -31.614921, 0.0 ] } },
{ "type": "Feature", "properties": { "nro": "231", "ubicacion": "Juan de Garay 3371", "distrito": "CENTRO", "zonainmob": 4 }, "geometry": { "type": "Point", "coordinates": [ -60.718242, -31.650813, 0.0 ] } },
{ "type": "Feature", "properties": { "nro": "232", "ubicacion": "Av. Blas Pareras 9360", "distrito": "NORTE", "zonainmob": 30 }, "geometry": { "type": "Point", "coordinates": [ -60.728696, -31.573643, 0.0 ] } },
{ "type": "Feature", "properties": { "nro": "233", "ubicacion": "Av. Gral Paz 4499 - 1817", "distrito": "CENTRO", "zonainmob": 15 }, "geometry": { "type": "Point", "coordinates": [ -60.6985, -31.627116, 0.0 ] } },
{ "type": "Feature", "properties": { "nro": "234", "ubicacion": "J. de Arenales 7932", "distrito": "NORTE", "zonainmob": 24 }, "geometry": { "type": "Point", "coordinates": [ -60.720499, -31.589218, 0.0 ] } },
{ "type": "Feature", "properties": { "nro": "235", "ubicacion": "Francia 3387", "distrito": "CENTRO", "zonainmob": 6 }, "geometry": { "type": "Point", "coordinates": [ -60.711769, -31.635264, 0.0 ] } },
{ "type": "Feature", "properties": { "nro": "236", "ubicacion": "Francia 3336", "distrito": "CENTRO", "zonainmob": 6 }, "geometry": { "type": "Point", "coordinates": [ -60.711672, -31.635779, 0.0 ] } },
{ "type": "Feature", "properties": { "nro": "237", "ubicacion": "Padre Genesio y San José", "distrito": "NORTE", "zonainmob": 20 }, "geometry": { "type": "Point", "coordinates": [ -60.708698, -31.596386, 0.0 ] } },
{ "type": "Feature", "properties": { "nro": "238", "ubicacion": "Pasaje Rivadavia 4700", "distrito": "ESTE", "zonainmob": 15 }, "geometry": { "type": "Point", "coordinates": [ -60.698066, -31.623915, 0.0 ] } },
{ "type": "Feature", "properties": { "nro": "239", "ubicacion": "Velez Sarsfield 5065", "distrito": "ESTE", "zonainmob": 14 }, "geometry": { "type": "Point", "coordinates": [ -60.681951, -31.624881, 0.0 ] } },
{ "type": "Feature", "properties": { "nro": "240", "ubicacion": "Av. Facundo Zuviria 5898", "distrito": "OESTE", "zonainmob": 19 }, "geometry": { "type": "Point", "coordinates": [ -60.704631, -31.612124, 0.0 ] } },
{ "type": "Feature", "properties": { "nro": "241", "ubicacion": "Av. José Gorriti 3100", "distrito": "ESTE", "zonainmob": 29 }, "geometry": { "type": "Point", "coordinates": [ -60.6978, -31.58952, 0.0 ] } },
{ "type": "Feature", "properties": { "nro": "242", "ubicacion": "Av. José Gorriti 3353", "distrito": "NORTE", "zonainmob": 20 }, "geometry": { "type": "Point", "coordinates": [ -60.700133, -31.588977, 0.0 ] } },
{ "type": "Feature", "properties": { "nro": "243", "ubicacion": "Av. José Gorriti 4600", "distrito": "NORTE", "zonainmob": 30 }, "geometry": { "type": "Point", "coordinates": [ -60.717675, -31.584579, 0.0 ] } },
{ "type": "Feature", "properties": { "nro": "244", "ubicacion": "Bv. Pellegrini ", "distrito": "CENTRO", "zonainmob": 10 }, "geometry": { "type": "Point", "coordinates": [ -60.719418, -31.631923, 0.0 ] } },
{ "type": "Feature", "properties": { "nro": "245", "ubicacion": "Juan Larrea 6556", "distrito": "NOROESTE", "zonainmob": 25 }, "geometry": { "type": "Point", "coordinates": [ -60.742098, -31.5847, 0.0 ] } },
{ "type": "Feature", "properties": { "nro": "246", "ubicacion": "Alvear 4176", "distrito": "CENTRO", "zonainmob": 13 }, "geometry": { "type": "Point", "coordinates": [ -60.694623, -31.630847, 0.0 ] } },
{ "type": "Feature", "properties": { "nro": "247", "ubicacion": "PAVON 1750", "distrito": "ESTE", "zonainmob": 22 }, "geometry": { "type": "Point", "coordinates": [ -60.682574, -31.598859, 0.0 ] } },
{ "type": "Feature", "properties": { "nro": "248", "ubicacion": "Pavón 898", "distrito": "ESTE", "zonainmob": 18 }, "geometry": { "type": "Point", "coordinates": [ -60.673432, -31.600424, 0.0 ] } },
{ "type": "Feature", "properties": { "nro": "249", "ubicacion": "San Lorenzo 1898", "distrito": "CENTRO", "zonainmob": 4 }, "geometry": { "type": "Point", "coordinates": [ -60.718965, -31.652035, 0.0 ] } },
{ "type": "Feature", "properties": { "nro": "250", "ubicacion": "Cochabamba 4202", "distrito": "OESTE", "zonainmob": 17 }, "geometry": { "type": "Point", "coordinates": [ -60.716338, -31.625732, 0.0 ] } },
{ "type": "Feature", "properties": { "nro": "251", "ubicacion": "J.H Vieytes", "distrito": "ESTE", "zonainmob": 22 }, "geometry": { "type": "Point", "coordinates": [ -60.687472, -31.603997, 0.0 ] } },
{ "type": "Feature", "properties": { "nro": "252", "ubicacion": "San Jose 1237", "distrito": "SUROESTE", "zonainmob": 9 }, "geometry": { "type": "Point", "coordinates": [ -60.726594, -31.658322, 0.0 ] } },
{ "type": "Feature", "properties": { "nro": "253", "ubicacion": "PEDRO VITTORI 3643", "distrito": "CENTRO", "zonainmob": 13 }, "geometry": { "type": "Point", "coordinates": [ -60.700626, -31.634144, 0.0 ] } },
{ "type": "Feature", "properties": { "nro": "254", "ubicacion": "Mariano Comas 2974", "distrito": "CENTRO", "zonainmob": 13 }, "geometry": { "type": "Point", "coordinates": [ -60.7072, -31.631822, 0.0 ] } },
{ "type": "Feature", "properties": { "nro": "255", "ubicacion": "MARIANO COMAS 2800", "distrito": "CENTRO", "zonainmob": 13 }, "geometry": { "type": "Point", "coordinates": [ -60.70536, -31.63244, 0.0 ] } },
{ "type": "Feature", "properties": { "nro": "256", "ubicacion": "NECOCHEA 4332", "distrito": "CENTRO", "zonainmob": 13 }, "geometry": { "type": "Point", "coordinates": [ -60.692064, -31.629887, 0.0 ] } },
{ "type": "Feature", "properties": { "nro": "257", "ubicacion": "REPUBLICA DE SIRIA 3501", "distrito": "CENTRO", "zonainmob": 10 }, "geometry": { "type": "Point", "coordinates": [ -60.699789, -31.636078, 0.0 ] } },
{ "type": "Feature", "properties": { "nro": "258", "ubicacion": "Regis Martinez 3219", "distrito": "OESTE", "zonainmob": 16 }, "geometry": { "type": "Point", "coordinates": [ -60.706769, -31.617451, 0.0 ] } },
{ "type": "Feature", "properties": { "nro": "259", "ubicacion": "RIVADAVIA 3192", "distrito": "CENTRO", "zonainmob": 5 }, "geometry": { "type": "Point", "coordinates": [ -60.701864, -31.639559, 0.0 ] } },
{ "type": "Feature", "properties": { "nro": "260", "ubicacion": "AV. J. J. PASO 2966", "distrito": "CENTRO", "zonainmob": 3 }, "geometry": { "type": "Point", "coordinates": [ -60.716432, -31.662531, 0.0 ] } },
{ "type": "Feature", "properties": { "nro": "261", "ubicacion": "Dgnal. Isla Malvinas 3583", "distrito": "SUROESTE", "zonainmob": 2 }, "geometry": { "type": "Point", "coordinates": [ -60.727668, -31.666661, 0.0 ] } },
{ "type": "Feature", "properties": { "nro": "262", "ubicacion": "Rivadavia 7381", "distrito": "ESTE", "zonainmob": 22 }, "geometry": { "type": "Point", "coordinates": [ -60.690828, -31.600588, 0.0 ] } },
{ "type": "Feature", "properties": { "nro": "263", "ubicacion": "Urquiza 6207", "distrito": "OESTE", "zonainmob": 19 }, "geometry": { "type": "Point", "coordinates": [ -60.702762, -31.609377, 0.0 ] } },
{ "type": "Feature", "properties": { "nro": "264", "ubicacion": "LAS HERAS 3501", "distrito": "CENTRO", "zonainmob": 11 }, "geometry": { "type": "Point", "coordinates": [ -60.697691, -31.636584, 0.0 ] } },
{ "type": "Feature", "properties": { "nro": "265", "ubicacion": "3 de Febrero 3467", "distrito": "CENTRO", "zonainmob": 4 }, "geometry": { "type": "Point", "coordinates": [ -60.721327, -31.656361, 0.0 ] } },
{ "type": "Feature", "properties": { "nro": "266", "ubicacion": "4 de Enero 1329", "distrito": "CENTRO", "zonainmob": 4 }, "geometry": { "type": "Point", "coordinates": [ -60.715879, -31.658994, 0.0 ] } },
{ "type": "Feature", "properties": { "nro": "267", "ubicacion": "4 de Enero 1027", "distrito": "CENTRO", "zonainmob": 4 }, "geometry": { "type": "Point", "coordinates": [ -60.716952, -31.662209, 0.0 ] } },
{ "type": "Feature", "properties": { "nro": "268", "ubicacion": "Grand Bourg 4097", "distrito": "CENTRO", "zonainmob": 12 }, "geometry": { "type": "Point", "coordinates": [ -60.682144, -31.634316, 0.0 ] } },
{ "type": "Feature", "properties": { "nro": "269", "ubicacion": "Av. Siete Jefes 4121", "distrito": "CENTRO", "zonainmob": 12 }, "geometry": { "type": "Point", "coordinates": [ -60.680734, -31.634279, 0.0 ] } },
{ "type": "Feature", "properties": { "nro": "270", "ubicacion": "J. Iturraspe 755", "distrito": "CENTRO", "zonainmob": 12 }, "geometry": { "type": "Point", "coordinates": [ -60.682231, -31.633379, 0.0 ] } },
{ "type": "Feature", "properties": { "nro": "271", "ubicacion": "Av. Siete Jefes 4305", "distrito": "CENTRO", "zonainmob": 12 }, "geometry": { "type": "Point", "coordinates": [ -60.680075, -31.632861, 0.0 ] } },
{ "type": "Feature", "properties": { "nro": "272", "ubicacion": "LAS HERAS 4450", "distrito": "ESTE", "zonainmob": 15 }, "geometry": { "type": "Point", "coordinates": [ -60.694907, -31.628039, 0.0 ] } },
{ "type": "Feature", "properties": { "nro": "273", "ubicacion": "Las Heras 5244", "distrito": "ESTE", "zonainmob": 15 }, "geometry": { "type": "Point", "coordinates": [ -60.692866, -31.620974, 0.0 ] } },
{ "type": "Feature", "properties": { "nro": "274", "ubicacion": "Pasaje Lassaga 7142", "distrito": "ESTE", "zonainmob": 23 }, "geometry": { "type": "Point", "coordinates": [ -60.700786, -31.600893, 0.0 ] } },
{ "type": "Feature", "properties": { "nro": "275", "ubicacion": "Ayacucho 2433", "distrito": "ESTE", "zonainmob": 22 }, "geometry": { "type": "Point", "coordinates": [ -60.690524, -31.597727, 0.0 ] } },
{ "type": "Feature", "properties": { "nro": "276", "ubicacion": "Ayacucho 2301", "distrito": "ESTE", "zonainmob": 22 }, "geometry": { "type": "Point", "coordinates": [ -60.68869, -31.598146, 0.0 ] } },
{ "type": "Feature", "properties": { "nro": "277", "ubicacion": "GRAL. PEÑALOZA 8100", "distrito": "NORTE", "zonainmob": 20 }, "geometry": { "type": "Point", "coordinates": [ -60.711493, -31.588329, 0.0 ] } },
{ "type": "Feature", "properties": { "nro": "278", "ubicacion": "Ayacucho y Las Heras", "distrito": "ESTE", "zonainmob": 22 }, "geometry": { "type": "Point", "coordinates": [ -60.686652, -31.598372, 0.0 ] } },
{ "type": "Feature", "properties": { "nro": "279", "ubicacion": "Ayacucho 2025", "distrito": "ESTE", "zonainmob": 22 }, "geometry": { "type": "Point", "coordinates": [ -60.685627, -31.598797, 0.0 ] } },
{ "type": "Feature", "properties": { "nro": "280", "ubicacion": "Ayacucho 1797", "distrito": "ESTE", "zonainmob": 22 }, "geometry": { "type": "Point", "coordinates": [ -60.683086, -31.599316, 0.0 ] } },
{ "type": "Feature", "properties": { "nro": "281", "ubicacion": "AYACUCHO 1750", "distrito": "ESTE", "zonainmob": 22 }, "geometry": { "type": "Point", "coordinates": [ -60.683106, -31.59912, 0.0 ] } },
{ "type": "Feature", "properties": { "nro": "282", "ubicacion": "LAVALLE 7707", "distrito": "ESTE", "zonainmob": 22 }, "geometry": { "type": "Point", "coordinates": [ -60.679, -31.600018, 0.0 ] } },
{ "type": "Feature", "properties": { "nro": "283", "ubicacion": "Roque Saenz Peña 2498", "distrito": "SUROESTE", "zonainmob": 8 }, "geometry": { "type": "Point", "coordinates": [ -60.724572, -31.642496, 0.0 ] } },
{ "type": "Feature", "properties": { "nro": "284", "ubicacion": "Eva Perón 2621", "distrito": "CENTRO", "zonainmob": 42 }, "geometry": { "type": "Point", "coordinates": [ -60.706293, -31.644554, 0.0 ] } },
{ "type": "Feature", "properties": { "nro": "286", "ubicacion": "Estanislao Zeballos 3466", "distrito": "NORTE", "zonainmob": 20 }, "geometry": { "type": "Point", "coordinates": [ -60.705734, -31.602952, 0.0 ] } },
{ "type": "Feature", "properties": { "nro": "287", "ubicacion": "Dr. Zavalla 2246", "distrito": "CENTRO", "zonainmob": 8 }, "geometry": { "type": "Point", "coordinates": [ -60.72024, -31.646848, 0.0 ] } },
{ "type": "Feature", "properties": { "nro": "288", "ubicacion": "Av.Aristobulo del Valle 10200", "distrito": "NORESTE", "zonainmob": 33 }, "geometry": { "type": "Point", "coordinates": [ -60.690465, -31.572912, 0.0 ] } },
{ "type": "Feature", "properties": { "nro": "290", "ubicacion": "Grand Bourg 4347", "distrito": "CENTRO", "zonainmob": 12 }, "geometry": { "type": "Point", "coordinates": [ -60.681455, -31.632098, 0.0 ] } },
{ "type": "Feature", "properties": { "nro": "285", "ubicacion": "Junin 2489", "distrito": "CENTRO", "zonainmob": 6 }, "geometry": { "type": "Point", "coordinates": [ -60.703289, -31.639244, 0.0 ] } },
{ "type": "Feature", "properties": { "nro": "289", "ubicacion": "Hipólito Yrigoyen 3491 - 2890", "distrito": "CENTRO", "zonainmob": 7 }, "geometry": { "type": "Point", "coordinates": [ -60.716668, -31.640272, 0.0 ] } },
{ "type": "Feature", "properties": { "nro": "291", "ubicacion": "Juan del Campillo 1579", "distrito": "CENTRO", "zonainmob": 13 }, "geometry": { "type": "Point", "coordinates": [ -60.690578, -31.632552, 0.0 ] } },
{ "type": "Feature", "properties": { "nro": "292", "ubicacion": "Alblerdi 4030", "distrito": "CENTRO", "zonainmob": 13 }, "geometry": { "type": "Point", "coordinates": [ -60.690756, -31.633107, 0.0 ] } },
{ "type": "Feature", "properties": { "nro": "293", "ubicacion": "CNEL. J. R. MENDEZ NRO 5700", "distrito": "NOROESTE", "zonainmob": 31 }, "geometry": { "type": "Point", "coordinates": [ -60.72917, -31.57727, 0.0 ] } },
{ "type": "Feature", "properties": { "nro": "294", "ubicacion": "AV. J. J. PASO  3737", "distrito": "SUROESTE", "zonainmob": 9 }, "geometry": { "type": "Point", "coordinates": [ -60.726252, -31.661098, 0.0 ] } },
{ "type": "Feature", "properties": { "nro": "295", "ubicacion": "La Rioja 2456", "distrito": "CENTRO", "zonainmob": 6 }, "geometry": { "type": "Point", "coordinates": [ -60.704957, -31.645931, 0.0 ] } },
{ "type": "Feature", "properties": { "nro": "296", "ubicacion": "Mariano Comas 2982", "distrito": "CENTRO", "zonainmob": 13 }, "geometry": { "type": "Point", "coordinates": [ -60.707317, -31.631736, 0.0 ] } },
{ "type": "Feature", "properties": { "nro": "297", "ubicacion": "Los Cedros 2699", "distrito": "NORESTE", "zonainmob": 28 }, "geometry": { "type": "Point", "coordinates": [ -60.686859, -31.571232, 0.0 ] } },
{ "type": "Feature", "properties": { "nro": "298", "ubicacion": "Marcial Candioti 3000", "distrito": "CENTRO", "zonainmob": 5 }, "geometry": { "type": "Point", "coordinates": [ -60.696606, -31.64143, 0.0 ] } },
{ "type": "Feature", "properties": { "nro": "299", "ubicacion": "AZCUENAGA 6492", "distrito": "NOROESTE", "zonainmob": 25 }, "geometry": { "type": "Point", "coordinates": [ -60.74185, -31.584603, 0.0 ] } },
{ "type": "Feature", "properties": { "nro": "300", "ubicacion": "Alberti 2144", "distrito": "ESTE", "zonainmob": 22 }, "geometry": { "type": "Point", "coordinates": [ -60.688137, -31.602878, 0.0 ] } },
{ "type": "Feature", "properties": { "nro": "301", "ubicacion": "Ignacio Risso 2021", "distrito": "ESTE", "zonainmob": 22 }, "geometry": { "type": "Point", "coordinates": [ -60.686692, -31.602423, 0.0 ] } },
{ "type": "Feature", "properties": { "nro": "302", "ubicacion": "Francia 3061", "distrito": "CENTRO", "zonainmob": 6 }, "geometry": { "type": "Point", "coordinates": [ -60.712731, -31.638828, 0.0 ] } }
]
}
