{
  "type": "FeatureCollection",
  "features": [
    {
      "type": "Feature",
      "properties": {
        "name": "NORTE"
      },
      "geometry": {
        "type": "Polygon",
        "coordinates": [
          [
            [
              -60.73207,
              -31.561457
            ],
            [
              -60.72229,
              -31.599547
            ],
            [
              -60.708904,
              -31.602261
            ],
            [
              -60.702639,
              -31.603869
            ],
            [
              -60.69869,
              -31.591147
            ],
            [
              -60.69513,
              -31.578627
            ],
            [
              -60.69997,
              -31.577547
            ],
            [
              -60.69749,
              -31.567657
            ],
            [
              -60.73207,
              -31.561457
            ]
          ]
        ]
      }
    },
    {
      "type": "Feature",
      "properties": {
        "name": "NOROESTE"
      },
      "geometry": {
        "type": "Polygon",
        "coordinates": [
          [
            [
              -60.731735,
              -31.561424
            ],
            [
              -60.750275,
              -31.55645
            ],
            [
              -60.764351,
              -31.55294
            ],
            [
              -60.765896,
              -31.552647
            ],
            [
              -60.76684,
              -31.554329
            ],
            [
              -60.768299,
              -31.556011
            ],
            [
              -60.770016,
              -31.555207
            ],
            [
              -60.771818,
              -31.554622
            ],
            [
              -60.771217,
              -31.555719
            ],
            [
              -60.770788,
              -31.55762
            ],
            [
              -60.77096,
              -31.559961
            ],
            [
              -60.773106,
              -31.560838
            ],
            [
              -60.773621,
              -31.558425
            ],
            [
              -60.775809,
              -31.556487
            ],
            [
              -60.77756,
              -31.56098
            ],
            [
              -60.77791,
              -31.56288
            ],
            [
              -60.77774,
              -31.56551
            ],
            [
              -60.777268,
              -31.567713
            ],
            [
              -60.777311,
              -31.568993
            ],
            [
              -60.777054,
              -31.569578
            ],
            [
              -60.776453,
              -31.569943
            ],
            [
              -60.775337,
              -31.569578
            ],
            [
              -60.774693,
              -31.568919
            ],
            [
              -60.773964,
              -31.566872
            ],
            [
              -60.773664,
              -31.565738
            ],
            [
              -60.772805,
              -31.564861
            ],
            [
              -60.771174,
              -31.565117
            ],
            [
              -60.77053,
              -31.56581
            ],
            [
              -60.769758,
              -31.567786
            ],
            [
              -60.770402,
              -31.568993
            ],
            [
              -60.770316,
              -31.570601
            ],
            [
              -60.76375,
              -31.563215
            ],
            [
              -60.761347,
              -31.564349
            ],
            [
              -60.760274,
              -31.566506
            ],
            [
              -60.761132,
              -31.56859
            ],
            [
              -60.76169,
              -31.569249
            ],
            [
              -60.761518,
              -31.56987
            ],
            [
              -60.760531,
              -31.570016
            ],
            [
              -60.758729,
              -31.569541
            ],
            [
              -60.757184,
              -31.570748
            ],
            [
              -60.757442,
              -31.572247
            ],
            [
              -60.757098,
              -31.573526
            ],
            [
              -60.75654,
              -31.575281
            ],
            [
              -60.756841,
              -31.57689
            ],
            [
              -60.757999,
              -31.577695
            ],
            [
              -60.75963,
              -31.577987
            ],
            [
              -60.761347,
              -31.577658
            ],
            [
              -60.763149,
              -31.577987
            ],
            [
              -60.764608,
              -31.578718
            ],
            [
              -60.765209,
              -31.579998
            ],
            [
              -60.764952,
              -31.581935
            ],
            [
              -60.763922,
              -31.583946
            ],
            [
              -60.763664,
              -31.587127
            ],
            [
              -60.763922,
              -31.589649
            ],
            [
              -60.765595,
              -31.590198
            ],
            [
              -60.766325,
              -31.591258
            ],
            [
              -60.766368,
              -31.592281
            ],
            [
              -60.765982,
              -31.593122
            ],
            [
              -60.764136,
              -31.594438
            ],
            [
              -60.763407,
              -31.596046
            ],
            [
              -60.764394,
              -31.596485
            ],
            [
              -60.76551,
              -31.596595
            ],
            [
              -60.765638,
              -31.59707
            ],
            [
              -60.765252,
              -31.597435
            ],
            [
              -60.764308,
              -31.59813
            ],
            [
              -60.762849,
              -31.598349
            ],
            [
              -60.760703,
              -31.59908
            ],
            [
              -60.75963,
              -31.600067
            ],
            [
              -60.758429,
              -31.601639
            ],
            [
              -60.758042,
              -31.600908
            ],
            [
              -60.758557,
              -31.599702
            ],
            [
              -60.75963,
              -31.597874
            ],
            [
              -60.759287,
              -31.596668
            ],
            [
              -60.75767,
              -31.59608
            ],
            [
              -60.7222,
              -31.60012
            ],
            [
              -60.731735,
              -31.561424
            ]
          ]
        ]
      }
    },
    {
      "type": "Feature",
      "properties": {
        "name": "ESTE"
      },
      "geometry": {
        "type": "Polygon",
        "coordinates": [
          [
            [
              -60.680804,
              -31.626686
            ],
            [
              -60.680943,
              -31.626613
            ],
            [
              -60.681,
              -31.62663
            ],
            [
              -60.68095,
              -31.62661
            ],
            [
              -60.68139,
              -31.62638
            ],
            [
              -60.681073,
              -31.626489
            ],
            [
              -60.680575,
              -31.62646
            ],
            [
              -60.68055,
              -31.62645
            ],
            [
              -60.680511,
              -31.626456
            ],
            [
              -60.6804,
              -31.62645
            ],
            [
              -60.680453,
              -31.626466
            ],
            [
              -60.67852,
              -31.62678
            ],
            [
              -60.67449,
              -31.62046
            ],
            [
              -60.66998,
              -31.61651
            ],
            [
              -60.6653,
              -31.61318
            ],
            [
              -60.66287,
              -31.60731
            ],
            [
              -60.66255,
              -31.60163
            ],
            [
              -60.67564,
              -31.59922
            ],
            [
              -60.67551,
              -31.59359
            ],
            [
              -60.69796,
              -31.58921
            ],
            [
              -60.70032,
              -31.59615
            ],
            [
              -60.70253,
              -31.60386
            ],
            [
              -60.70186,
              -31.60628
            ],
            [
              -60.70072,
              -31.60951
            ],
            [
              -60.69929,
              -31.61335
            ],
            [
              -60.69894,
              -31.61399
            ],
            [
              -60.69866,
              -31.61505
            ],
            [
              -60.70049,
              -31.61786
            ],
            [
              -60.70495,
              -31.6202
            ],
            [
              -60.70838,
              -31.62174
            ],
            [
              -60.71002,
              -31.62269
            ],
            [
              -60.70495,
              -31.63153
            ],
            [
              -60.70306,
              -31.63219
            ],
            [
              -60.70053,
              -31.63197
            ],
            [
              -60.69937,
              -31.63109
            ],
            [
              -60.698197,
              -31.629907
            ],
            [
              -60.697188,
              -31.629341
            ],
            [
              -60.695751,
              -31.629706
            ],
            [
              -60.694184,
              -31.629816
            ],
            [
              -60.692639,
              -31.629414
            ],
            [
              -60.689979,
              -31.628921
            ],
            [
              -60.687275,
              -31.62819
            ],
            [
              -60.682833,
              -31.62713
            ],
            [
              -60.68109,
              -31.62714
            ],
            [
              -60.680804,
              -31.626686
            ]
          ]
        ]
      }
    },
    {
      "type": "Feature",
      "properties": {
        "name": "NORESTE"
      },
      "geometry": {
        "type": "Polygon",
        "coordinates": [
          [
            [
              -60.69733,
              -31.56764
            ],
            [
              -60.69989,
              -31.57758
            ],
            [
              -60.69748,
              -31.57795
            ],
            [
              -60.69521,
              -31.5786
            ],
            [
              -60.6981,
              -31.58935
            ],
            [
              -60.67544,
              -31.59359
            ],
            [
              -60.67561,
              -31.59922
            ],
            [
              -60.66258,
              -31.6016
            ],
            [
              -60.66219,
              -31.59756
            ],
            [
              -60.66207,
              -31.5969
            ],
            [
              -60.66145,
              -31.59462
            ],
            [
              -60.66131,
              -31.59386
            ],
            [
              -60.66112,
              -31.59027
            ],
            [
              -60.66006,
              -31.58867
            ],
            [
              -60.65882,
              -31.58712
            ],
            [
              -60.65582,
              -31.58396
            ],
            [
              -60.65272,
              -31.58306
            ],
            [
              -60.649509,
              -31.583654
            ],
            [
              -60.649509,
              -31.583215
            ],
            [
              -60.649166,
              -31.58263
            ],
            [
              -60.648823,
              -31.582484
            ],
            [
              -60.647621,
              -31.580437
            ],
            [
              -60.647278,
              -31.579705
            ],
            [
              -60.64642,
              -31.578243
            ],
            [
              -60.646591,
              -31.576196
            ],
            [
              -60.69733,
              -31.56764
            ]
          ]
        ]
      }
    },
    {
      "type": "Feature",
      "properties": {
        "name": "SUROESTE"
      },
      "geometry": {
        "type": "Polygon",
        "coordinates": [
          [
            [
              -60.720755,
              -31.650354
            ],
            [
              -60.72089,
              -31.65033
            ],
            [
              -60.720771,
              -31.650314
            ],
            [
              -60.72082,
              -31.65027
            ],
            [
              -60.722,
              -31.64997
            ],
            [
              -60.72266,
              -31.64972
            ],
            [
              -60.72288,
              -31.64956
            ],
            [
              -60.722942,
              -31.649538
            ],
            [
              -60.72295,
              -31.64954
            ],
            [
              -60.722906,
              -31.649597
            ],
            [
              -60.72276,
              -31.64967
            ],
            [
              -60.722856,
              -31.649662
            ],
            [
              -60.72278,
              -31.64976
            ],
            [
              -60.722876,
              -31.64966
            ],
            [
              -60.723796,
              -31.649582
            ],
            [
              -60.72143,
              -31.64059
            ],
            [
              -60.7177,
              -31.64117
            ],
            [
              -60.71356,
              -31.62825
            ],
            [
              -60.7143,
              -31.62796
            ],
            [
              -60.71774,
              -31.62713
            ],
            [
              -60.72392,
              -31.63131
            ],
            [
              -60.72622,
              -31.63356
            ],
            [
              -60.72932,
              -31.63646
            ],
            [
              -60.73586,
              -31.63741
            ],
            [
              -60.7364,
              -31.63684
            ],
            [
              -60.73748,
              -31.63551
            ],
            [
              -60.7374,
              -31.63701
            ],
            [
              -60.74074,
              -31.63957
            ],
            [
              -60.74255,
              -31.64359
            ],
            [
              -60.74315,
              -31.64592
            ],
            [
              -60.7421,
              -31.64868
            ],
            [
              -60.7416,
              -31.65024
            ],
            [
              -60.74077,
              -31.65219
            ],
            [
              -60.74074,
              -31.65579
            ],
            [
              -60.7404,
              -31.65637
            ],
            [
              -60.74049,
              -31.65674
            ],
            [
              -60.74049,
              -31.65732
            ],
            [
              -60.74023,
              -31.65798
            ],
            [
              -60.73954,
              -31.66024
            ],
            [
              -60.73937,
              -31.66192
            ],
            [
              -60.73894,
              -31.66412
            ],
            [
              -60.73868,
              -31.66609
            ],
            [
              -60.73817,
              -31.66908
            ],
            [
              -60.73645,
              -31.66989
            ],
            [
              -60.73538,
              -31.67023
            ],
            [
              -60.73323,
              -31.66989
            ],
            [
              -60.73182,
              -31.66992
            ],
            [
              -60.73128,
              -31.67011
            ],
            [
              -60.73016,
              -31.67005
            ],
            [
              -60.72952,
              -31.67075
            ],
            [
              -60.72903,
              -31.67175
            ],
            [
              -60.72813,
              -31.67243
            ],
            [
              -60.72757,
              -31.67275
            ],
            [
              -60.72598,
              -31.67309
            ],
            [
              -60.72512,
              -31.67307
            ],
            [
              -60.72431,
              -31.67286
            ],
            [
              -60.72124,
              -31.67151
            ],
            [
              -60.71898,
              -31.67034
            ],
            [
              -60.71821,
              -31.66963
            ],
            [
              -60.7177,
              -31.66894
            ],
            [
              -60.71718,
              -31.66804
            ],
            [
              -60.71651,
              -31.66734
            ],
            [
              -60.71601,
              -31.66718
            ],
            [
              -60.71555,
              -31.66711
            ],
            [
              -60.71524,
              -31.66719
            ],
            [
              -60.71484,
              -31.66759
            ],
            [
              -60.71465,
              -31.66707
            ],
            [
              -60.71433,
              -31.66662
            ],
            [
              -60.71491,
              -31.66613
            ],
            [
              -60.71602,
              -31.66481
            ],
            [
              -60.71585,
              -31.66266
            ],
            [
              -60.72436,
              -31.66083
            ],
            [
              -60.720755,
              -31.650354
            ]
          ]
        ]
      }
    },
    {
      "type": "Feature",
      "properties": {
        "name": "OESTE"
      },
      "geometry": {
        "type": "Polygon",
        "coordinates": [
          [
            [
              -60.7109004,
              -31.6160552
            ],
            [
              -60.7133032,
              -31.6117432
            ],
            [
              -60.7084977,
              -31.6091122
            ],
            [
              -60.7017175,
              -31.6054212
            ],
            [
              -60.7018895,
              -31.6043982
            ],
            [
              -60.7030054,
              -31.6011452
            ],
            [
              -60.706176,
              -31.5925142
            ],
            [
              -60.7257037,
              -31.5883342
            ],
            [
              -60.7255737,
              -31.5889842
            ],
            [
              -60.7608894,
              -31.5850542
            ],
            [
              -60.7619593,
              -31.5852742
            ],
            [
              -60.7630792,
              -31.5858642
            ],
            [
              -60.7576728,
              -31.5894492
            ],
            [
              -60.7583598,
              -31.5925842
            ],
            [
              -60.7574999,
              -31.5939042
            ],
            [
              -60.7569799,
              -31.5949242
            ],
            [
              -60.7556101,
              -31.5960242
            ],
            [
              -60.7535503,
              -31.5964642
            ],
            [
              -60.7510646,
              -31.5955902
            ],
            [
              -60.7492618,
              -31.5926662
            ],
            [
              -60.7464302,
              -31.5920082
            ],
            [
              -60.7434265,
              -31.5927392
            ],
            [
              -60.7414528,
              -31.5943472
            ],
            [
              -60.7417957,
              -31.5964672
            ],
            [
              -60.7435125,
              -31.5980022
            ],
            [
              -60.7430836,
              -31.5994642
            ],
            [
              -60.7417097,
              -31.6005612
            ],
            [
              -60.7403369,
              -31.6015842
            ],
            [
              -60.739307,
              -31.6025342
            ],
            [
              -60.7353595,
              -31.6049462
            ],
            [
              -60.7334627,
              -31.6061142
            ],
            [
              -60.7326128,
              -31.6080842
            ],
            [
              -60.7353525,
              -31.6118842
            ],
            [
              -60.739992,
              -31.6151742
            ],
            [
              -60.7423917,
              -31.6186842
            ],
            [
              -60.7409318,
              -31.6243042
            ],
            [
              -60.739992,
              -31.6254742
            ],
            [
              -60.739302,
              -31.6262042
            ],
            [
              -60.7327328,
              -31.6252742
            ],
            [
              -60.7273935,
              -31.6201442
            ],
            [
              -60.7212342,
              -31.6159442
            ],
            [
              -60.7177746,
              -31.6167842
            ],
            [
              -60.7083358,
              -31.6202942
            ],
            [
              -60.7109004,
              -31.6160552
            ]
          ]
        ]
      }
    },
    {
      "type": "Feature",
      "properties": {
        "name": "CENTRO"
      },
      "geometry": {
        "type": "Polygon",
        "coordinates": [
          [
            [
              -60.723461,
              -31.659992
            ],
            [
              -60.72328,
              -31.660078
            ],
            [
              -60.715,
              -31.661818
            ],
            [
              -60.71518,
              -31.663998
            ],
            [
              -60.7139601,
              -31.665418
            ],
            [
              -60.7135501,
              -31.665768
            ],
            [
              -60.7119101,
              -31.665928
            ],
            [
              -60.7110501,
              -31.665738
            ],
            [
              -60.7087101,
              -31.665028
            ],
            [
              -60.7055102,
              -31.661598
            ],
            [
              -60.7043101,
              -31.659438
            ],
            [
              -60.7038402,
              -31.659238
            ],
            [
              -60.7030302,
              -31.658258
            ],
            [
              -60.7026002,
              -31.656758
            ],
            [
              -60.7026402,
              -31.654998
            ],
            [
              -60.7018852,
              -31.6529824
            ],
            [
              -60.7030302,
              -31.651608
            ],
            [
              -60.7025502,
              -31.650258
            ],
            [
              -60.7014223,
              -31.6457176
            ],
            [
              -60.7018202,
              -31.647698
            ],
            [
              -60.7003702,
              -31.647588
            ],
            [
              -60.7005802,
              -31.648278
            ],
            [
              -60.7014802,
              -31.650618
            ],
            [
              -60.7021202,
              -31.651968
            ],
            [
              -60.7015202,
              -31.652338
            ],
            [
              -60.7015762,
              -31.65245
            ],
            [
              -60.6986692,
              -31.6514184
            ],
            [
              -60.7006702,
              -31.651968
            ],
            [
              -60.6997602,
              -31.649418
            ],
            [
              -60.6991202,
              -31.647078
            ],
            [
              -60.6986102,
              -31.646878
            ],
            [
              -60.6973802,
              -31.647128
            ],
            [
              -60.6983102,
              -31.650548
            ],
            [
              -60.6995101,
              -31.654198
            ],
            [
              -60.6993801,
              -31.654678
            ],
            [
              -60.6937103,
              -31.648828
            ],
            [
              -60.6923803,
              -31.647548
            ],
            [
              -60.6913503,
              -31.646858
            ],
            [
              -60.6876203,
              -31.644778
            ],
            [
              -60.6852203,
              -31.642988
            ],
            [
              -60.6843303,
              -31.642088
            ],
            [
              -60.6831303,
              -31.640718
            ],
            [
              -60.6826203,
              -31.639838
            ],
            [
              -60.6821203,
              -31.638728
            ],
            [
              -60.6816903,
              -31.638138
            ],
            [
              -60.6777905,
              -31.630418
            ],
            [
              -60.6770204,
              -31.628628
            ],
            [
              -60.6773674,
              -31.626801
            ],
            [
              -60.6775814,
              -31.626144
            ],
            [
              -60.6778305,
              -31.625958
            ],
            [
              -60.6795104,
              -31.625698
            ],
            [
              -60.6802404,
              -31.626028
            ],
            [
              -60.6825603,
              -31.626508
            ],
            [
              -60.6885003,
              -31.627968
            ],
            [
              -60.6917003,
              -31.628608
            ],
            [
              -60.6939703,
              -31.628988
            ],
            [
              -60.6947403,
              -31.629008
            ],
            [
              -60.6962202,
              -31.628608
            ],
            [
              -60.6967602,
              -31.628768
            ],
            [
              -60.6974002,
              -31.629228
            ],
            [
              -60.6979002,
              -31.629718
            ],
            [
              -60.6985002,
              -31.630218
            ],
            [
              -60.6994601,
              -31.631108
            ],
            [
              -60.7009202,
              -31.631478
            ],
            [
              -60.7022102,
              -31.631508
            ],
            [
              -60.7033702,
              -31.631148
            ],
            [
              -60.7045301,
              -31.630558
            ],
            [
              -60.7127401,
              -31.627458
            ],
            [
              -60.7168701,
              -31.640358
            ],
            [
              -60.7206,
              -31.639748
            ],
            [
              -60.7218001,
              -31.644388
            ],
            [
              -60.72238,
              -31.646348
            ],
            [
              -60.722846,
              -31.648285
            ],
            [
              -60.7229,
              -31.648724
            ],
            [
              -60.722374,
              -31.648786
            ],
            [
              -60.722448,
              -31.648393
            ],
            [
              -60.722514,
              -31.648742
            ],
            [
              -60.722518,
              -31.648407
            ],
            [
              -60.722621,
              -31.648678
            ],
            [
              -60.72257,
              -31.648318
            ],
            [
              -60.722519,
              -31.648346
            ],
            [
              -60.72252,
              -31.648298
            ],
            [
              -60.722491,
              -31.648334
            ],
            [
              -60.72247,
              -31.648278
            ],
            [
              -60.72245,
              -31.648384
            ],
            [
              -60.722447,
              -31.648385
            ],
            [
              -60.72244,
              -31.648348
            ],
            [
              -60.722433,
              -31.648393
            ],
            [
              -60.721226,
              -31.649052
            ],
            [
              -60.71989,
              -31.649488
            ],
            [
              -60.723461,
              -31.659992
            ]
          ]
        ]
      }
    },
    {
      "type": "Feature",
      "properties": {
        "name": "LA COSTA"
      },
      "geometry": {
        "type": "Polygon",
        "coordinates": [
          [
            [
              -60.565867,
              -31.61333
            ],
            [
              -60.582025,
              -31.611507
            ],
            [
              -60.613757,
              -31.60792
            ],
            [
              -60.617017,
              -31.6107
            ],
            [
              -60.618907,
              -31.61245
            ],
            [
              -60.622507,
              -31.61494
            ],
            [
              -60.624397,
              -31.61611
            ],
            [
              -60.624962,
              -31.616551
            ],
            [
              -60.625563,
              -31.617026
            ],
            [
              -60.626627,
              -31.61757
            ],
            [
              -60.627494,
              -31.618341
            ],
            [
              -60.628687,
              -31.61918
            ],
            [
              -60.628867,
              -31.62152
            ],
            [
              -60.629207,
              -31.62312
            ],
            [
              -60.628687,
              -31.62473
            ],
            [
              -60.628687,
              -31.62692
            ],
            [
              -60.629547,
              -31.63832
            ],
            [
              -60.645347,
              -31.63935
            ],
            [
              -60.650317,
              -31.63862
            ],
            [
              -60.654097,
              -31.6392
            ],
            [
              -60.654697,
              -31.63642
            ],
            [
              -60.655037,
              -31.63635
            ],
            [
              -60.654807,
              -31.63591
            ],
            [
              -60.654957,
              -31.63582
            ],
            [
              -60.654897,
              -31.63425
            ],
            [
              -60.656307,
              -31.63248
            ],
            [
              -60.660417,
              -31.63237
            ],
            [
              -60.662757,
              -31.63319
            ],
            [
              -60.663627,
              -31.63546
            ],
            [
              -60.663687,
              -31.63867
            ],
            [
              -60.664457,
              -31.63875
            ],
            [
              -60.664827,
              -31.63671
            ],
            [
              -60.664967,
              -31.63462
            ],
            [
              -60.674177,
              -31.63403
            ],
            [
              -60.675027,
              -31.6348
            ],
            [
              -60.676687,
              -31.6371
            ],
            [
              -60.679627,
              -31.64072
            ],
            [
              -60.679757,
              -31.64258
            ],
            [
              -60.679737,
              -31.64366
            ],
            [
              -60.682507,
              -31.64505
            ],
            [
              -60.687747,
              -31.64812
            ],
            [
              -60.692637,
              -31.65078
            ],
            [
              -60.696327,
              -31.65517
            ],
            [
              -60.700917,
              -31.66028
            ],
            [
              -60.701437,
              -31.66306
            ],
            [
              -60.701347,
              -31.66561
            ],
            [
              -60.700877,
              -31.66649
            ],
            [
              -60.700787,
              -31.66708
            ],
            [
              -60.699287,
              -31.6696
            ],
            [
              -60.696967,
              -31.6727
            ],
            [
              -60.682847,
              -31.68808
            ],
            [
              -60.673817,
              -31.69872
            ],
            [
              -60.670407,
              -31.70239
            ],
            [
              -60.668257,
              -31.70538
            ],
            [
              -60.667827,
              -31.70801
            ],
            [
              -60.667397,
              -31.71137
            ],
            [
              -60.666547,
              -31.71473
            ],
            [
              -60.666287,
              -31.71553
            ],
            [
              -60.665597,
              -31.71608
            ],
            [
              -60.664907,
              -31.71561
            ],
            [
              -60.663197,
              -31.71312
            ],
            [
              -60.662767,
              -31.71195
            ],
            [
              -60.662597,
              -31.7102
            ],
            [
              -60.663537,
              -31.70757
            ],
            [
              -60.664657,
              -31.7048
            ],
            [
              -60.666287,
              -31.70202
            ],
            [
              -60.667227,
              -31.70071
            ],
            [
              -60.668177,
              -31.69925
            ],
            [
              -60.672977,
              -31.69399
            ],
            [
              -60.692717,
              -31.67354
            ],
            [
              -60.695557,
              -31.66368
            ],
            [
              -60.694177,
              -31.65813
            ],
            [
              -60.694777,
              -31.65571
            ],
            [
              -60.691087,
              -31.65177
            ],
            [
              -60.684047,
              -31.64797
            ],
            [
              -60.681387,
              -31.6468
            ],
            [
              -60.674437,
              -31.64454
            ],
            [
              -60.666457,
              -31.64454
            ],
            [
              -60.662427,
              -31.64468
            ],
            [
              -60.656417,
              -31.64651
            ],
            [
              -60.653237,
              -31.6506
            ],
            [
              -60.651177,
              -31.65308
            ],
            [
              -60.649117,
              -31.65411
            ],
            [
              -60.647747,
              -31.65367
            ],
            [
              -60.647147,
              -31.65257
            ],
            [
              -60.645087,
              -31.65024
            ],
            [
              -60.641647,
              -31.64943
            ],
            [
              -60.636677,
              -31.64578
            ],
            [
              -60.630747,
              -31.65564
            ],
            [
              -60.628607,
              -31.65747
            ],
            [
              -60.626377,
              -31.65498
            ],
            [
              -60.626717,
              -31.64607
            ],
            [
              -60.622937,
              -31.64658
            ],
            [
              -60.617617,
              -31.6517
            ],
            [
              -60.614187,
              -31.65469
            ],
            [
              -60.613327,
              -31.65586
            ],
            [
              -60.612207,
              -31.65688
            ],
            [
              -60.610927,
              -31.65791
            ],
            [
              -60.606887,
              -31.66141
            ],
            [
              -60.607447,
              -31.66328
            ],
            [
              -60.609807,
              -31.66536
            ],
            [
              -60.610627,
              -31.66638
            ],
            [
              -60.610537,
              -31.66748
            ],
            [
              -60.610107,
              -31.66781
            ],
            [
              -60.608907,
              -31.66817
            ],
            [
              -60.608267,
              -31.66795
            ],
            [
              -60.603717,
              -31.66587
            ],
            [
              -60.601737,
              -31.66287
            ],
            [
              -60.598647,
              -31.65696
            ],
            [
              -60.598817,
              -31.64578
            ],
            [
              -60.594547,
              -31.63135
            ],
            [
              -60.589467,
              -31.62539
            ],
            [
              -60.587837,
              -31.62356
            ],
            [
              -60.583197,
              -31.62079
            ],
            [
              -60.582025,
              -31.620362
            ],
            [
              -60.573587,
              -31.61728
            ],
            [
              -60.565867,
              -31.61333
            ]
          ]
        ]
      }
    }
  ]
}